<?xml version="1.0" encoding="UTF-8"?>
<kml xmlns="http://www.opengis.net/kml/2.2" xmlns:gx="http://www.google.com/kml/ext/2.2" xmlns:kml="http://www.opengis.net/kml/2.2" xmlns:atom="http://www.w3.org/2005/Atom">
<Folder>
	<name>AP</name>
	<open>1</open>
	<Document id="Anantapur" xsi:schemaLocation="http://www.opengis.net/kml/2.2 http://schemas.opengis.net/kml/2.2.0/ogckml22.xsd http://www.google.com/kml/ext/2.2 http://code.google.com/apis/kml/schema/kml22gx.xsd">
		<name>Anantapur</name>
		<Snippet maxLines="0"></Snippet>
		<Style id="PolyStyle00">
			<LabelStyle>
				<color>00000000</color>
				<scale>0</scale>
			</LabelStyle>
			<LineStyle>
				<color>ff000000</color>
				<width>2</width>
			</LineStyle>
			<PolyStyle>
				<color>00f0f0f0</color>
			</PolyStyle>
		</Style>
		<Folder id="FeatureLayer0">
			<name>Anantapur</name>
			<Snippet maxLines="0"></Snippet>
			<Placemark id="ID_00000">
				<name>0</name>
				<Snippet maxLines="0"></Snippet>
				<description><![CDATA[<html xmlns:fo="http://www.w3.org/1999/XSL/Format" xmlns:msxsl="urn:schemas-microsoft-com:xslt">

<head>

<META http-equiv="Content-Type" content="text/html">

<meta http-equiv="content-type" content="text/html; charset=UTF-8">

</head>

<body style="margin:0px 0px 0px 0px;overflow:auto;background:#FFFFFF;">

<table style="font-family:Arial,Verdana,Times;font-size:12px;text-align:left;width:100%;border-collapse:collapse;padding:3px 3px 3px 3px">

<tr style="text-align:center;font-weight:bold;background:#9CBCE2">

<td>0</td>

</tr>

<tr>

<td>

<table style="font-family:Arial,Verdana,Times;font-size:12px;text-align:left;width:100%;border-spacing:0px; padding:3px 3px 3px 3px">

<tr>

<td>FID</td>

<td>0</td>

</tr>

<tr bgcolor="#D4E4F3">

<td>Id</td>

<td>0</td>

</tr>

</table>

</td>

</tr>

</table>

</body>

</html>]]></description>
				<styleUrl>#PolyStyle00</styleUrl>
				<MultiGeometry>
					<Polygon>
						<outerBoundaryIs>
							<LinearRing>
								<coordinates>
									77.00000000000011,13.75000000000011,0 77.19999999999999,13.75000000000011,0 77.00000000000011,14.11666666666667,0 77.00000000000011,13.75000000000011,0 
								</coordinates>
							</LinearRing>
						</outerBoundaryIs>
					</Polygon>
				</MultiGeometry>
			</Placemark>
		</Folder>
	</Document>
	<Document id="Identified Wind Potential Blocks" xsi:schemaLocation="http://www.opengis.net/kml/2.2 http://schemas.opengis.net/kml/2.2.0/ogckml22.xsd http://www.google.com/kml/ext/2.2 http://code.google.com/apis/kml/schema/kml22gx.xsd">
		<name>Identified Wind Potential Blocks</name>
		<Snippet maxLines="0"></Snippet>
		<Style id="PolyStyle000">
			<LabelStyle>
				<color>00000000</color>
				<scale>0</scale>
			</LabelStyle>
			<LineStyle>
				<color>ffe65c00</color>
				<width>2</width>
			</LineStyle>
			<PolyStyle>
				<color>00f0f0f0</color>
			</PolyStyle>
		</Style>
		<Folder id="FeatureLayer0">
			<name>Identified Wind Potential Blocks</name>
			<Snippet maxLines="0"></Snippet>
			<Placemark id="ID_00000">
				<name>Kurnool</name>
				<Snippet maxLines="0"></Snippet>
				<description><![CDATA[<html xmlns:fo="http://www.w3.org/1999/XSL/Format" xmlns:msxsl="urn:schemas-microsoft-com:xslt">

<head>

<META http-equiv="Content-Type" content="text/html">

<meta http-equiv="content-type" content="text/html; charset=UTF-8">

</head>

<body style="margin:0px 0px 0px 0px;overflow:auto;background:#FFFFFF;">

<table style="font-family:Arial,Verdana,Times;font-size:12px;text-align:left;width:100%;border-collapse:collapse;padding:3px 3px 3px 3px">

<tr style="text-align:center;font-weight:bold;background:#9CBCE2">

<td>Kurnool</td>

</tr>

<tr>

<td>

<table style="font-family:Arial,Verdana,Times;font-size:12px;text-align:left;width:100%;border-spacing:0px; padding:3px 3px 3px 3px">

<tr>

<td>FID</td>

<td>0</td>

</tr>

<tr bgcolor="#D4E4F3">

<td>SHAPE_Leng</td>

<td>281535.734896</td>

</tr>

<tr>

<td>SHAPE_Area</td>

<td>4892042897.68</td>

</tr>

<tr bgcolor="#D4E4F3">

<td>Blocks</td>

<td>Block 1</td>

</tr>

<tr>

<td>Block_name</td>

<td>Kurnool</td>

</tr>

</table>

</td>

</tr>

</table>

</body>

</html>]]></description>
				<styleUrl>#PolyStyle000</styleUrl>
				<MultiGeometry>
					<Polygon>
						<outerBoundaryIs>
							<LinearRing>
								<coordinates>
									77.15395946266429,15.93156227455456,0 77.16081496230539,15.22544581153582,0 77.74289061084787,15.23109703179316,0 77.73603511074583,15.93721349517759,0 77.15395946266429,15.93156227455456,0 
								</coordinates>
							</LinearRing>
						</outerBoundaryIs>
					</Polygon>
				</MultiGeometry>
			</Placemark>
			<Placemark id="ID_00001">
				<name>Cuddapah</name>
				<Snippet maxLines="0"></Snippet>
				<description><![CDATA[<html xmlns:fo="http://www.w3.org/1999/XSL/Format" xmlns:msxsl="urn:schemas-microsoft-com:xslt">

<head>

<META http-equiv="Content-Type" content="text/html">

<meta http-equiv="content-type" content="text/html; charset=UTF-8">

</head>

<body style="margin:0px 0px 0px 0px;overflow:auto;background:#FFFFFF;">

<table style="font-family:Arial,Verdana,Times;font-size:12px;text-align:left;width:100%;border-collapse:collapse;padding:3px 3px 3px 3px">

<tr style="text-align:center;font-weight:bold;background:#9CBCE2">

<td>Cuddapah</td>

</tr>

<tr>

<td>

<table style="font-family:Arial,Verdana,Times;font-size:12px;text-align:left;width:100%;border-spacing:0px; padding:3px 3px 3px 3px">

<tr>

<td>FID</td>

<td>1</td>

</tr>

<tr bgcolor="#D4E4F3">

<td>SHAPE_Leng</td>

<td>399748.609605</td>

</tr>

<tr>

<td>SHAPE_Area</td>

<td>9471847798.5</td>

</tr>

<tr bgcolor="#D4E4F3">

<td>Blocks</td>

<td>Block 3</td>

</tr>

<tr>

<td>Block_name</td>

<td>Cuddapah</td>

</tr>

</table>

</td>

</tr>

</table>

</body>

</html>]]></description>
				<styleUrl>#PolyStyle000</styleUrl>
				<MultiGeometry>
					<Polygon>
						<outerBoundaryIs>
							<LinearRing>
								<coordinates>
									77.73905459844538,15.62620625121532,0 77.7303838909352,14.51875730276303,0 78.44813331049673,14.51313772457944,0 78.45680401818711,15.62058667384235,0 77.73905459844538,15.62620625121532,0 
								</coordinates>
							</LinearRing>
						</outerBoundaryIs>
					</Polygon>
				</MultiGeometry>
			</Placemark>
			<Placemark id="ID_00002">
				<name>Anantapur</name>
				<Snippet maxLines="0"></Snippet>
				<description><![CDATA[<html xmlns:fo="http://www.w3.org/1999/XSL/Format" xmlns:msxsl="urn:schemas-microsoft-com:xslt">

<head>

<META http-equiv="Content-Type" content="text/html">

<meta http-equiv="content-type" content="text/html; charset=UTF-8">

</head>

<body style="margin:0px 0px 0px 0px;overflow:auto;background:#FFFFFF;">

<table style="font-family:Arial,Verdana,Times;font-size:12px;text-align:left;width:100%;border-collapse:collapse;padding:3px 3px 3px 3px">

<tr style="text-align:center;font-weight:bold;background:#9CBCE2">

<td>Anantapur</td>

</tr>

<tr>

<td>

<table style="font-family:Arial,Verdana,Times;font-size:12px;text-align:left;width:100%;border-spacing:0px; padding:3px 3px 3px 3px">

<tr>

<td>FID</td>

<td>2</td>

</tr>

<tr bgcolor="#D4E4F3">

<td>SHAPE_Leng</td>

<td>409756.420296</td>

</tr>

<tr>

<td>SHAPE_Area</td>

<td>9157518632.219999</td>

</tr>

<tr bgcolor="#D4E4F3">

<td>Blocks</td>

<td>Block 2</td>

</tr>

<tr>

<td>Block_name</td>

<td>Anantapur</td>

</tr>

</table>

</td>

</tr>

</table>

</body>

</html>]]></description>
				<styleUrl>#PolyStyle000</styleUrl>
				<MultiGeometry>
					<Polygon>
						<outerBoundaryIs>
							<LinearRing>
								<coordinates>
									76.97312042547891,15.16864759036308,0 76.96150793179599,13.91449825453769,0 77.57183967989654,13.90884703422447,0 77.58345217350379,15.16299637037856,0 76.97312042547891,15.16864759036308,0 
								</coordinates>
							</LinearRing>
						</outerBoundaryIs>
					</Polygon>
				</MultiGeometry>
			</Placemark>
			<Placemark id="ID_00003">
				<name>Chittoor</name>
				<Snippet maxLines="0"></Snippet>
				<description><![CDATA[<html xmlns:fo="http://www.w3.org/1999/XSL/Format" xmlns:msxsl="urn:schemas-microsoft-com:xslt">

<head>

<META http-equiv="Content-Type" content="text/html">

<meta http-equiv="content-type" content="text/html; charset=UTF-8">

</head>

<body style="margin:0px 0px 0px 0px;overflow:auto;background:#FFFFFF;">

<table style="font-family:Arial,Verdana,Times;font-size:12px;text-align:left;width:100%;border-collapse:collapse;padding:3px 3px 3px 3px">

<tr style="text-align:center;font-weight:bold;background:#9CBCE2">

<td>Chittoor</td>

</tr>

<tr>

<td>

<table style="font-family:Arial,Verdana,Times;font-size:12px;text-align:left;width:100%;border-spacing:0px; padding:3px 3px 3px 3px">

<tr>

<td>FID</td>

<td>3</td>

</tr>

<tr bgcolor="#D4E4F3">

<td>SHAPE_Leng</td>

<td>558288.368715</td>

</tr>

<tr>

<td>SHAPE_Area</td>

<td>18137888550.599998</td>

</tr>

<tr bgcolor="#D4E4F3">

<td>Blocks</td>

<td>Block 4</td>

</tr>

<tr>

<td>Block_name</td>

<td>Chittoor</td>

</tr>

</table>

</td>

</tr>

</table>

</body>

</html>]]></description>
				<styleUrl>#PolyStyle000</styleUrl>
				<MultiGeometry>
					<Polygon>
						<outerBoundaryIs>
							<LinearRing>
								<coordinates>
									77.70777901110471,14.41703534443986,0 77.68353094772044,13.48752625060491,0 79.31272546011463,13.44502552382648,0 79.33697352294783,14.37453461859703,0 77.70777901110471,14.41703534443986,0 
								</coordinates>
							</LinearRing>
						</outerBoundaryIs>
					</Polygon>
				</MultiGeometry>
			</Placemark>
		</Folder>
	</Document>
</Folder>
</kml>
