<?xml version="1.0" encoding="UTF-8"?>
<kml xmlns="http://www.opengis.net/kml/2.2" xmlns:gx="http://www.google.com/kml/ext/2.2" xmlns:kml="http://www.opengis.net/kml/2.2" xmlns:atom="http://www.w3.org/2005/Atom">
<Folder>
	<name>MP</name>
	<open>1</open>
	<Document id="MP_bloacks" xsi:schemaLocation="http://www.opengis.net/kml/2.2 http://schemas.opengis.net/kml/2.2.0/ogckml22.xsd http://www.google.com/kml/ext/2.2 http://code.google.com/apis/kml/schema/kml22gx.xsd">
		<name>Identified Wind Potential Blocks</name>
		<Snippet maxLines="0"></Snippet>
		<Style id="PolyStyle00">
			<LabelStyle>
				<color>00000000</color>
				<scale>0</scale>
			</LabelStyle>
			<LineStyle>
				<color>ffe65c00</color>
				<width>2</width>
			</LineStyle>
			<PolyStyle>
				<color>00f0f0f0</color>
			</PolyStyle>
		</Style>
		<Folder id="FeatureLayer0">
			<name>MP_bloacks</name>
			<Snippet maxLines="0"></Snippet>
			<Placemark id="ID_00000">
				<name>Block 3</name>
				<Snippet maxLines="0"></Snippet>
				<description><![CDATA[<html xmlns:fo="http://www.w3.org/1999/XSL/Format" xmlns:msxsl="urn:schemas-microsoft-com:xslt">

<head>

<META http-equiv="Content-Type" content="text/html">

<meta http-equiv="content-type" content="text/html; charset=UTF-8">

</head>

<body style="margin:0px 0px 0px 0px;overflow:auto;background:#FFFFFF;">

<table style="font-family:Arial,Verdana,Times;font-size:12px;text-align:left;width:100%;border-collapse:collapse;padding:3px 3px 3px 3px">

<tr style="text-align:center;font-weight:bold;background:#9CBCE2">

<td>Block 3</td>

</tr>

<tr>

<td>

<table style="font-family:Arial,Verdana,Times;font-size:12px;text-align:left;width:100%;border-spacing:0px; padding:3px 3px 3px 3px">

<tr>

<td>FID</td>

<td>0</td>

</tr>

<tr bgcolor="#D4E4F3">

<td>SHAPE_Leng</td>

<td>437949.046278</td>

</tr>

<tr>

<td>SHAPE_Area</td>

<td>11122405952.200001</td>

</tr>

<tr bgcolor="#D4E4F3">

<td>Blocks</td>

<td>Block 3</td>

</tr>

</table>

</td>

</tr>

</table>

</body>

</html>]]></description>
				<styleUrl>#PolyStyle00</styleUrl>
				<MultiGeometry>
					<Polygon>
						<outerBoundaryIs>
							<LinearRing>
								<coordinates>
									75.37176070764176,22.43919974737215,0 75.37943141935028,21.71815278516493,0 76.72144742652208,21.73242955168553,0 76.71377671444448,22.45347651288313,0 75.37176070764176,22.43919974737215,0 
								</coordinates>
							</LinearRing>
						</outerBoundaryIs>
					</Polygon>
				</MultiGeometry>
			</Placemark>
			<Placemark id="ID_00001">
				<name>Block 1</name>
				<Snippet maxLines="0"></Snippet>
				<description><![CDATA[<html xmlns:fo="http://www.w3.org/1999/XSL/Format" xmlns:msxsl="urn:schemas-microsoft-com:xslt">

<head>

<META http-equiv="Content-Type" content="text/html">

<meta http-equiv="content-type" content="text/html; charset=UTF-8">

</head>

<body style="margin:0px 0px 0px 0px;overflow:auto;background:#FFFFFF;">

<table style="font-family:Arial,Verdana,Times;font-size:12px;text-align:left;width:100%;border-collapse:collapse;padding:3px 3px 3px 3px">

<tr style="text-align:center;font-weight:bold;background:#9CBCE2">

<td>Block 1</td>

</tr>

<tr>

<td>

<table style="font-family:Arial,Verdana,Times;font-size:12px;text-align:left;width:100%;border-spacing:0px; padding:3px 3px 3px 3px">

<tr>

<td>FID</td>

<td>1</td>

</tr>

<tr bgcolor="#D4E4F3">

<td>SHAPE_Leng</td>

<td>552667.631578</td>

</tr>

<tr>

<td>SHAPE_Area</td>

<td>16975525994.4</td>

</tr>

<tr bgcolor="#D4E4F3">

<td>Blocks</td>

<td>Block 1</td>

</tr>

</table>

</td>

</tr>

</table>

</body>

</html>]]></description>
				<styleUrl>#PolyStyle00</styleUrl>
				<MultiGeometry>
					<Polygon>
						<outerBoundaryIs>
							<LinearRing>
								<coordinates>
									74.72930623583935,22.73187345142215,0 75.62874249552505,22.73187345054681,0 75.62874249562046,24.38797831121799,0 74.72930623544737,24.38797831096957,0 74.72930623583935,22.73187345142215,0 
								</coordinates>
							</LinearRing>
						</outerBoundaryIs>
					</Polygon>
				</MultiGeometry>
			</Placemark>
			<Placemark id="ID_00002">
				<name>Block 2</name>
				<Snippet maxLines="0"></Snippet>
				<description><![CDATA[<html xmlns:fo="http://www.w3.org/1999/XSL/Format" xmlns:msxsl="urn:schemas-microsoft-com:xslt">

<head>

<META http-equiv="Content-Type" content="text/html">

<meta http-equiv="content-type" content="text/html; charset=UTF-8">

</head>

<body style="margin:0px 0px 0px 0px;overflow:auto;background:#FFFFFF;">

<table style="font-family:Arial,Verdana,Times;font-size:12px;text-align:left;width:100%;border-collapse:collapse;padding:3px 3px 3px 3px">

<tr style="text-align:center;font-weight:bold;background:#9CBCE2">

<td>Block 2</td>

</tr>

<tr>

<td>

<table style="font-family:Arial,Verdana,Times;font-size:12px;text-align:left;width:100%;border-spacing:0px; padding:3px 3px 3px 3px">

<tr>

<td>FID</td>

<td>2</td>

</tr>

<tr bgcolor="#D4E4F3">

<td>SHAPE_Leng</td>

<td>448261.04734</td>

</tr>

<tr>

<td>SHAPE_Area</td>

<td>12007010167.200001</td>

</tr>

<tr bgcolor="#D4E4F3">

<td>Blocks</td>

<td>Block 2</td>

</tr>

</table>

</td>

</tr>

</table>

</body>

</html>]]></description>
				<styleUrl>#PolyStyle00</styleUrl>
				<MultiGeometry>
					<Polygon>
						<outerBoundaryIs>
							<LinearRing>
								<coordinates>
									75.82861722065077,22.68190476968409,0 76.6923615652385,22.68904315325038,0 76.68227217677453,23.90985924493538,0 75.81852783083991,23.90272086236444,0 75.82861722065077,22.68190476968409,0 
								</coordinates>
							</LinearRing>
						</outerBoundaryIs>
					</Polygon>
				</MultiGeometry>
			</Placemark>
		</Folder>
	</Document>
</Folder>
</kml>
