<?xml version="1.0" encoding="UTF-8"?>
<kml xmlns="http://www.opengis.net/kml/2.2" xmlns:gx="http://www.google.com/kml/ext/2.2" xmlns:kml="http://www.opengis.net/kml/2.2" xmlns:atom="http://www.w3.org/2005/Atom">
<Folder>
	<name>RJ</name>
	<Document>
		<name>NOC to be obtained.shp</name>
		<Schema name="NOC to be obtained" id="S_NOC_to_be_obtained_SSISSIIS">
			<SimpleField type="string" name="GM_LAYER"><displayName>&lt;b&gt;GM_LAYER&lt;/b&gt;</displayName>
</SimpleField>
			<SimpleField type="string" name="KML_STYLE"><displayName>&lt;b&gt;KML_STYLE&lt;/b&gt;</displayName>
</SimpleField>
			<SimpleField type="int" name="FID"><displayName>&lt;b&gt;FID&lt;/b&gt;</displayName>
</SimpleField>
			<SimpleField type="string" name="NAME"><displayName>&lt;b&gt;NAME&lt;/b&gt;</displayName>
</SimpleField>
			<SimpleField type="string" name="LAYER"><displayName>&lt;b&gt;LAYER&lt;/b&gt;</displayName>
</SimpleField>
			<SimpleField type="int" name="BUFF_DIST"><displayName>&lt;b&gt;BUFF_DIST&lt;/b&gt;</displayName>
</SimpleField>
			<SimpleField type="int" name="ORIG_FID"><displayName>&lt;b&gt;ORIG_FID&lt;/b&gt;</displayName>
</SimpleField>
			<SimpleField type="string" name="KML_FOLDER"><displayName>&lt;b&gt;KML_FOLDER&lt;/b&gt;</displayName>
</SimpleField>
		</Schema>
		<StyleMap id="falseColor">
			<Pair>
				<key>normal</key>
				<styleUrl>#falseColor0</styleUrl>
			</Pair>
			<Pair>
				<key>highlight</key>
				<styleUrl>#falseColor1</styleUrl>
			</Pair>
		</StyleMap>
		<Style id="falseColor0">
			<BalloonStyle>
				<text><![CDATA[<table border="0">
  <tr><td><b>GM_LAYER</b></td><td>$[NOC to be obtained/GM_LAYER]</td></tr>
  <tr><td><b>KML_STYLE</b></td><td>$[NOC to be obtained/KML_STYLE]</td></tr>
  <tr><td><b>FID</b></td><td>$[NOC to be obtained/FID]</td></tr>
  <tr><td><b>NAME</b></td><td>$[NOC to be obtained/NAME]</td></tr>
  <tr><td><b>LAYER</b></td><td>$[NOC to be obtained/LAYER]</td></tr>
  <tr><td><b>BUFF_DIST</b></td><td>$[NOC to be obtained/BUFF_DIST]</td></tr>
  <tr><td><b>ORIG_FID</b></td><td>$[NOC to be obtained/ORIG_FID]</td></tr>
  <tr><td><b>KML_FOLDER</b></td><td>$[NOC to be obtained/KML_FOLDER]</td></tr>
</table>
]]></text>
			</BalloonStyle>
			<LineStyle>
				<color>ffffff00</color>
				<width>2</width>
			</LineStyle>
			<PolyStyle>
				<colorMode>random</colorMode>
				<fill>0</fill>
			</PolyStyle>
		</Style>
		<Style id="falseColor1">
			<BalloonStyle>
				<text><![CDATA[<table border="0">
  <tr><td><b>GM_LAYER</b></td><td>$[NOC to be obtained/GM_LAYER]</td></tr>
  <tr><td><b>KML_STYLE</b></td><td>$[NOC to be obtained/KML_STYLE]</td></tr>
  <tr><td><b>FID</b></td><td>$[NOC to be obtained/FID]</td></tr>
  <tr><td><b>NAME</b></td><td>$[NOC to be obtained/NAME]</td></tr>
  <tr><td><b>LAYER</b></td><td>$[NOC to be obtained/LAYER]</td></tr>
  <tr><td><b>BUFF_DIST</b></td><td>$[NOC to be obtained/BUFF_DIST]</td></tr>
  <tr><td><b>ORIG_FID</b></td><td>$[NOC to be obtained/ORIG_FID]</td></tr>
  <tr><td><b>KML_FOLDER</b></td><td>$[NOC to be obtained/KML_FOLDER]</td></tr>
</table>
]]></text>
			</BalloonStyle>
			<LineStyle>
				<color>ffffff00</color>
				<width>2</width>
			</LineStyle>
			<PolyStyle>
				<colorMode>random</colorMode>
				<fill>0</fill>
			</PolyStyle>
		</Style>
		<Folder id="layer 0">
			<name>NOC to be obtained</name>
			<Placemark>
				<styleUrl>#falseColor</styleUrl>
				<ExtendedData>
					<SchemaData schemaUrl="#S_NOC_to_be_obtained_SSISSIIS">
						<SimpleData name="GM_LAYER">Unknown Area Type</SimpleData>
						<SimpleData name="KML_STYLE">area1</SimpleData>
						<SimpleData name="FID">0</SimpleData>
						<SimpleData name="NAME">half-circle</SimpleData>
						<SimpleData name="LAYER"></SimpleData>
						<SimpleData name="BUFF_DIST">0</SimpleData>
						<SimpleData name="ORIG_FID">0</SimpleData>
						<SimpleData name="KML_FOLDER"></SimpleData>
					</SchemaData>
				</ExtendedData>
				<Polygon>
					<outerBoundaryIs>
						<LinearRing>
							<coordinates>
								71.58164755199998,24.674294952,0 71.58401840199998,24.67040480999999,0 71.58961444199997,24.66839330799998,0 71.59663584299999,24.67003261899997,0 71.60183284299997,24.673023119,0 71.60772477699999,24.67491769,0 71.608411843,24.67513861899998,0 71.61015534299997,24.67281961899999,0 71.61265159299995,24.67141761900002,0 71.617813109,24.66706249099998,0 71.62258234299996,24.66697561899999,0 71.62600309299999,24.66245111900001,0 71.63214379899996,24.66054809599999,0 71.63680709299999,24.65690036900001,0 71.63989411999998,24.65134177599996,0 71.64308484299998,24.64749286900001,0 71.64213184299999,24.644261619,0 71.65167562699996,24.63859359200001,0 71.653430094,24.63755161900001,0 71.66205271199998,24.64088329800001,0 71.67796809399999,24.644046619,0 71.70735684699997,24.657944537,0 71.70842384399997,24.65844911899998,0 71.73794334399997,24.658306369,0 71.74976042799999,24.66389792600001,0 71.762844149,24.66823973199999,0 71.774805438,24.67210139399999,0 71.78563369499997,24.67411107600001,0 71.79137634399997,24.67437461899999,0 71.79212078999998,24.67417842499999,0 71.79382363199998,24.67372965099999,0 71.79700159399998,24.67289211899999,0 71.80154984399996,24.66974061899999,0 71.80260981599999,24.668325386,0 71.80572766,24.66355689399997,0 71.80752845399999,24.658328559,0 71.808899333,24.65300946400002,0 71.80964010399998,24.65013522699997,0 71.80848452400001,24.646129553,0 71.80684335399995,24.64158975399999,0 71.80465643599997,24.63461867899998,0 71.80393334599998,24.62812642199998,0 71.80407209399999,24.62560861900001,0 71.80786609399999,24.62211236899998,0 71.81373434399997,24.62034261899999,0 71.82548706600001,24.62016433299999,0 71.82880771300002,24.62011396000002,0 71.83671949399996,24.61897075899999,0 71.83898634399996,24.61853161899999,0 71.84277866099998,24.61480684399999,0 71.85080259399994,24.607809869,0 71.85326244999999,24.61720643600001,0 71.85527453599997,24.62043169499997,0 71.85716109399999,24.62317361900002,0 71.86117534399999,24.62709311899998,0 71.85947766499997,24.636846692,0 71.85710457999998,24.64564998400001,0 71.85510609699998,24.65347367999998,0 71.85619484699997,24.66162271700001,0 71.85822308399996,24.66757301400002,0 71.86169989999999,24.67280752799999,0 71.863714344,24.67584036899997,0 71.86910059399997,24.67876236900001,0 71.87423131999999,24.67911933200001,0 71.88135652299997,24.67497387000002,0 71.88362834399997,24.67365211900001,0 71.886466594,24.66929661899998,0 71.896872594,24.67255561899997,0 71.90482634399994,24.67309611899996,0 71.910185473,24.67156940899999,0 71.91283409399999,24.67081486899998,0 71.91869434399999,24.66552261899999,0 71.91872684399999,24.66215611899998,0 71.91613952199998,24.65738041499996,0 71.91276315999997,24.65526149699998,0 71.909948344,24.65436161899999,0 71.91147734400001,24.64966286899998,0 71.915738281,24.64392044899999,0 71.92671433499997,24.63077603699999,0 71.932226344,24.63098461900002,0 71.934689358,24.63054939000002,0 71.938347057,24.63050320899999,0 71.94018584399998,24.630949619,0 71.94320335199997,24.63538659400001,0 71.94446803500001,24.63638867499999,0 71.94939988900001,24.63891091800001,0 71.95500234399996,24.64177611899999,0 71.960233844,24.64124711899998,0 71.97202534399997,24.65022386899999,0 71.97573259399996,24.65411936900001,0 71.97877297700001,24.65431383399999,0 71.98267536199999,24.65456343299998,0 71.98619509399997,24.65636086899998,0 71.98600134199997,24.66097353399998,0 71.98439210899998,24.66572819600001,0 71.98326553900002,24.67133038499999,0 71.98708009399996,24.68078611899999,0 71.99138672599999,24.68409101999998,0 71.99547649599997,24.68683957299998,0 72.00079055199997,24.68928290399998,0 72.01302472399999,24.69216652199996,0 72.02476984400001,24.694934869,0 72.03345705099997,24.69832899299998,0 72.040118701,24.703918281,0 72.04571484399999,24.70886011900002,0 72.07287634399998,24.703323619,0 72.07856884399996,24.69996961899999,0 72.08559234399999,24.67769311899999,0 72.07565209399999,24.67142811899997,0 72.07772070699997,24.66484442099999,0 72.07866948899998,24.66120357099999,0 72.07809959399998,24.65569611900001,0 72.083047158,24.65234728299999,0 72.09038991199998,24.64853823499997,0 72.096951409,24.64496191699999,0 72.10468229099996,24.63970331100002,0 72.11154023399996,24.63566405899999,0 72.11858234399998,24.63445786899999,0 72.125783844,24.636076753,0 72.131707237,24.63692760699998,0 72.14025955599999,24.63747290900001,0 72.142661327,24.63707693499998,0 72.148663203,24.631135138,0 72.15368759399996,24.62323490899997,0 72.15487034399999,24.619412876,0 72.155034344,24.61851136899999,0 72.15876609399997,24.61719161899999,0 72.16898309400001,24.61537861900002,0 72.17930909399995,24.61206086900001,0 72.19492284399999,24.618742869,0 72.20044409399999,24.614645119,0 72.20412134399997,24.61512886899998,0 72.20178484399997,24.61981686900002,0 72.20447009399997,24.62156636900001,0 72.209903344,24.62275186899997,0 72.22357159399998,24.63538361899996,0 72.23564684399997,24.62580886899999,0 72.24171211999997,24.623539636,0 72.24902388099996,24.62370010999997,0 72.268468344,24.62461111900001,0 72.28739909399995,24.61551486899998,0 72.29345084399999,24.61850111899998,0 72.29918156999997,24.61740135599999,0 72.30182455699996,24.61546911499999,0 72.30825746699996,24.61145998999997,0 72.31796572899999,24.61133123699999,0 72.323772175,24.613659712,0 72.33408809399999,24.62518361899998,0 72.34138891899998,24.62359953,0 72.34738396399997,24.620432639,0 72.347004094,24.61839686899999,0 72.344013594,24.61682586899998,0 72.34307214799996,24.614619954,0 72.34302459399998,24.60446311899998,0 72.33978025499998,24.60195638900001,0 72.33786343099997,24.59896735199998,0 72.33604384399997,24.59569311900001,0 72.32573706899998,24.59150262300001,0 72.32184548499998,24.58992039499999,0 72.32037206999998,24.58932133799998,0 72.31540345399998,24.58806976400002,0 72.31271611500001,24.58745046399999,0 72.31110703200001,24.58725380100002,0 72.30775934399999,24.58764586900001,0 72.30298682199999,24.59278383499998,0 72.30103295599997,24.59553944300001,0 72.297988182,24.59977680600001,0 72.29442157799998,24.60218795399999,0 72.29379656299999,24.60233662199997,0 72.28930600199998,24.600463607,0 72.28644204199998,24.599462798,0 72.27339516499998,24.60225353299997,0 72.24454884399999,24.58258836900001,0 72.26521434399999,24.552520119,0 72.27869209399999,24.559759619,0 72.28366309399999,24.56058986899999,0 72.28531509399998,24.55758386899999,0 72.28551534399996,24.55276911900002,0 72.28751934399999,24.54721036899996,0 72.28697259399999,24.54228686900002,0 72.28947801599998,24.54097035400001,0 72.29423932999997,24.54246460999998,0 72.33072934399998,24.546324869,0 72.32735559399997,24.55802811899998,0 72.32846158299999,24.56050075200001,0 72.33432684399996,24.559675619,0 72.33704134400001,24.55713236899997,0 72.35172709399997,24.55463111900001,0 72.35501964700002,24.546320117,0 72.36197658999998,24.53896983899999,0 72.36637120299996,24.53921704600002,0 72.36772709399996,24.53942586899999,0 72.36903459399998,24.53369336899998,0 72.36466059399999,24.53083936900001,0 72.38009109399998,24.50253011899999,0 72.38430084400001,24.50086461899999,0 72.41499534399996,24.50999711899998,0 72.42539642099996,24.508606191,0 72.43533422899999,24.50630799400002,0 72.442088344,24.495174369,0 72.43948559399999,24.48960636900001,0 72.432506094,24.48093961899999,0 72.43055828399996,24.46231883099998,0 72.45006909399997,24.43994036899998,0 72.45144834399999,24.43466486899997,0 72.45591376799999,24.42670603400001,0 72.45758259399999,24.42273286899997,0 72.45847759399997,24.40890011899997,0 72.486136542,24.40781210399999,0 72.49489759399999,24.40902736899998,0 72.50162284400001,24.41159386899999,0 72.50394559399999,24.42000536899999,0 72.49906706299997,24.43102233399999,0 72.49677274899999,24.44074545600001,0 72.49456059400001,24.45199111899998,0 72.50301424899999,24.449775008,0 72.50575559399998,24.449056369,0 72.50647763999997,24.45473240799998,0 72.50428071799998,24.46263868899999,0 72.50027721599997,24.475589987,0 72.495897587,24.48843901099999,0 72.49114483199996,24.50117662199998,0 72.48602221900001,24.51379375900001,0 72.48053328399997,24.52628144299999,0 72.47468182399996,24.538630784,0 72.46847190099997,24.55083298899998,0 72.46190783499998,24.56287936699998,0 72.45499420099996,24.574761334,0 72.44773582699996,24.58647042299999,0 72.44013779300001,24.59799828600001,0 72.43153152299999,24.610245519,0 72.42394428699998,24.62047758800001,0 72.41536019099998,24.63141299000001,0 72.40588261000001,24.64279238699998,0 72.39542115600001,24.65460792699998,0 72.38676973999998,24.663892935,0 72.37640083599996,24.67441713099999,0 72.36523833399995,24.68510737500002,0 72.35742776499998,24.69228407899998,0 72.34697632100001,24.70138712800001,0 72.33583335699998,24.71059529799998,0 72.32464130300001,24.71934935,0 72.31319655199995,24.72782728499999,0 72.30150724199996,24.73602303799997,0 72.289581689,24.74393074599998,0 72.27589145599997,24.75245341699999,0 72.26312334699996,24.75993637099999,0 72.24452364799998,24.77003707899999,0 72.22671318699996,24.77895794899998,0 72.21355412999999,24.78502600600002,0 72.20022156599997,24.79077093199997,0 72.186013984,24.79645355700001,0 72.17307415299997,24.80127516399999,0 72.15927872099995,24.80602694199999,0 72.14462631799999,24.81064981499999,0 72.13129376299997,24.814512797,0 72.117124273,24.81824079000002,0 72.10255268999998,24.82168463999999,0 72.088482016,24.82465354599999,0 72.07402977400001,24.82733371199997,0 72.05950391499998,24.829660421,0 72.04491485399998,24.83163200699998,0 72.03016458099997,24.833256342,0 72.01564685399997,24.83449945199998,0 72.00027843700001,24.83542493400002,0 71.98613636699999,24.83594266699997,0 71.97138888899995,24.83612254699998,0 71.95664141100001,24.83594266699997,0 71.94190451300001,24.83540315799997,0 71.92718876499998,24.83450440499999,0 71.91250472500001,24.83324705399999,0 71.89851244599998,24.83170365199999,0 71.88378878499998,24.829730008,0 71.86874800399998,24.82733371199997,0 71.85429576199999,24.82465354599999,0 71.83992749599997,24.82162184799999,0 71.82565350499999,24.81824079000002,0 71.81148401499999,24.814512797,0 71.79696836699999,24.81029453799998,0 71.78349905699997,24.80602694199999,0 71.76970362499998,24.80127516399999,0 71.75543873599999,24.79594213799998,0 71.74253483600002,24.79076172100001,0 71.72922364699997,24.78502600600002,0 71.71606458999999,24.77895794899998,0 71.70336251300002,24.772706006,0 71.689957517,24.76567675400001,0 71.67773678499999,24.758867951,0 71.66530999099997,24.75152006400002,0 71.653386177,24.744049836,0 71.64118632099998,24.735963993,0 71.62943977599997,24.72772250399999,0 71.61813647499999,24.71934935,0 71.606552561,24.71027181699996,0 71.59601301300002,24.70157139099999,0 71.58535001299997,24.69228407899998,0 71.57382068699998,24.68163272100001,0 71.57406545599997,24.681228701,0 71.58164755199998,24.674294952,0 
							</coordinates>
						</LinearRing>
					</outerBoundaryIs>
				</Polygon>
			</Placemark>
			<Placemark>
				<styleUrl>#falseColor</styleUrl>
				<ExtendedData>
					<SchemaData schemaUrl="#S_NOC_to_be_obtained_SSISSIIS">
						<SimpleData name="GM_LAYER">Unknown Area Type</SimpleData>
						<SimpleData name="KML_STYLE">PolyStyle007</SimpleData>
						<SimpleData name="FID">0</SimpleData>
						<SimpleData name="NAME">Jaisalmer airfield</SimpleData>
						<SimpleData name="LAYER">Unknown Point Feature</SimpleData>
						<SimpleData name="BUFF_DIST">56</SimpleData>
						<SimpleData name="ORIG_FID">0</SimpleData>
						<SimpleData name="KML_FOLDER">jaisalmer_airfield_56km_new</SimpleData>
					</SchemaData>
				</ExtendedData>
				<Polygon>
					<outerBoundaryIs>
						<LinearRing>
							<coordinates>
								70.85159444679776,27.39493116740611,0 70.83653305502479,27.39439158863908,0 70.82149331134495,27.39349272136267,0 70.80648601956555,27.39223521124164,0 70.79152195922626,27.39061996153061,0 70.77661187754263,27.38864813239856,0 70.76176648137771,27.3863211400615,0 70.74699642924844,27.38364065572389,0 70.73231232337392,27.38060860432977,0 70.71772470177224,27.37722716312457,0 70.7032440304128,27.37349876002927,0 70.68888069543073,27.36942607182766,0 70.67464499540989,27.36501202216864,0 70.66054713374128,27.36025977938563,0 70.6465972110632,27.35517275413387,0 70.63280521778886,27.34975459684928,0 70.61918102672934,27.34400919502938,0 70.60573438581552,27.33794067033953,0 70.59247491092722,27.33155337554718,0 70.57941207883444,27.32485189128586,0 70.56655522025595,27.31784102265242,0 70.55391351304191,27.31052579564,0 70.54149597548462,27.30291145341007,0 70.52931145976412,27.29500345240624,0 70.5173686455324,27.28680745831359,0 70.50567603364173,27.27832934186647,0 70.49424194002241,27.26957517450881,0 70.48307448971312,27.26055122390964,0 70.47218161104972,27.25126394933877,0 70.4615710300162,27.2417199969053,0 70.45125026476106,27.2319261946635,0 70.44122662028434,27.22188954759026,0 70.43150718329798,27.21161723243721,0 70.42209881726353,27.20111659246323,0 70.41300815760965,27.19039513204983,0 70.40424160713394,27.17946051120553,0 70.39580533159035,27.16832053996226,0 70.38770525546623,27.15698317266881,0 70.37994705795055,27.14545650218615,0 70.37253616909624,27.13374875398863,0 70.36547776617836,27.12186828017602,0 70.35877677025034,27.10982355340105,0 70.35243784289972,27.09762316071729,0 70.34646538320492,27.08527579735202,0 70.34086352489489,27.07279026040853,0 70.33563613371201,27.0601754425037,0 70.33078680497988,27.04744032534452,0 70.32631886137644,27.03459397324935,0 70.32223535091293,27.02164552661832,0 70.31853904511969,27.00860419535774,0 70.31523243743811,26.9954792522641,0 70.3123177418197,26.9822800263716,0 70.30979689153178,26.96901589626896,0 70.3076715381694,26.95569628338976,0 70.30594305087338,26.94233064528204,0 70.30461251575366,26.92892846886095,0 70.30368073551737,26.91549926365049,0 70.30314822930069,26.90205255501844,0 70.3030152327032,26.88859787740923,0 70.30328169802421,26.87514476758041,0 70.30394729469901,26.86170275784659,0 70.30501140993395,26.8482813693361,0 70.3064731495389,26.83489010526475,0 70.30833133895509,26.82153844423189,0 70.31058452447652,26.80823583354278,0 70.31323097466348,26.79499168256238,0 70.31626868194543,26.78181535610454,0 70.31969536441126,26.76871616786192,0 70.32350846778535,26.7557033738802,0 70.32770516758602,26.74278616608141,0 70.33228237146446,26.72997366584076,0 70.33723672172175,26.7172749176212,0 70.34256459800082,26.70469888266946,0 70.34826212015093,26.69225443277877,0 70.35432515126183,26.679950344121,0 70.36074930086491,26.66779529115333,0 70.3675299282976,26.65579784060315,0 70.37466214622917,26.64396644553424,0 70.38214082434381,26.63230943949959,0 70.3899605931783,26.62083503078297,0 70.39811584811102,26.60955129673404,0 70.40660075349903,26.59846617820015,0 70.41540924695983,26.58758747405827,0 70.42453504379421,26.57692283585074,0 70.43397164154749,26.56647976252792,0 70.44371232470463,26.55626559530106,0 70.45375016951682,26.54628751260885,0 70.46407804895482,26.53655252520029,0 70.47468863778681,26.5270674713374,0 70.48557441777588,26.51783901212008,0 70.49672768299426,26.50887362693675,0 70.50814054525044,26.50017760904274,0 70.51980493962539,26.49175706126964,0 70.53171263011419,26.48361789186799,0 70.54385521536943,26.47576581048597,0 70.55622413454252,26.46820632428595,0 70.56881067321875,26.46094473420207,0 70.58160596944334,26.45398613134046,0 70.59460101983326,26.44733539352423,0 70.6077866857723,26.44099718198574,0 70.62115369968416,26.43497593820752,0 70.63469267138125,26.42927588091419,0 70.64839409448376,26.4239010032168,0 70.66224835290666,26.41885506991141,0 70.67624572740897,26.41414161493344,0 70.69037640220309,26.40976393896943,0 70.70463047161904,26.40572510722734,0 70.71899794682064,26.40202794736673,0 70.73346876256856,26.39867504759026,0 70.74803278402739,26.39566875489756,0 70.76267981361219,26.39301117350185,0 70.777399597871,26.39070416341141,0 70.79218183439845,26.38874933917556,0 70.80701617877764,26.38714806879659,0 70.82189225154582,26.38590147280799,0 70.83679964517954,26.38501042351944,0 70.85172793109614,26.38447554442934,0 70.86666666666666,26.38429720980499,0 70.88160540223718,26.38447554442934,0 70.89653368815378,26.38501042351944,0 70.91144108178754,26.38590147280799,0 70.92631715455568,26.38714806879659,0 70.94115149893484,26.38874933917556,0 70.95593373546228,26.39070416341141,0 70.97065351972113,26.39301117350185,0 70.98530054930598,26.39566875489756,0 70.99986457076476,26.39867504759026,0 71.01433538651268,26.40202794736673,0 71.02870286171428,26.40572510722734,0 71.04295693113028,26.40976393896943,0 71.05708760592439,26.41414161493344,0 71.07108498042666,26.41885506991141,0 71.08493923884956,26.4239010032168,0 71.09864066195212,26.42927588091419,0 71.11217963364916,26.43497593820752,0 71.12554664756102,26.44099718198574,0 71.13873231350006,26.44733539352423,0 71.15172736389002,26.45398613134046,0 71.16452266011457,26.46094473420207,0 71.17710919879084,26.46820632428595,0 71.18947811796384,26.47576581048597,0 71.20162070321913,26.48361789186799,0 71.21352839370793,26.49175706126964,0 71.22519278808288,26.50017760904274,0 71.23660565033906,26.50887362693675,0 71.24775891555744,26.51783901212008,0 71.25864469554655,26.5270674713374,0 71.2692552843785,26.53655252520029,0 71.27958316381654,26.54628751260885,0 71.28962100862869,26.55626559530106,0 71.29936169178588,26.56647976252792,0 71.30879828953911,26.57692283585074,0 71.31792408637352,26.58758747405827,0 71.32673257983429,26.59846617820015,0 71.3352174852223,26.60955129673404,0 71.34337274015502,26.62083503078297,0 71.35119250898951,26.63230943949959,0 71.35867118710415,26.64396644553424,0 71.36580340503572,26.65579784060315,0 71.37258403246841,26.66779529115333,0 71.37900818207146,26.679950344121,0 71.38507121318243,26.69225443277877,0 71.3907687353325,26.70469888266946,0 71.39609661161154,26.7172749176212,0 71.40105096186886,26.72997366584076,0 71.4056281657473,26.74278616608141,0 71.40982486554798,26.7557033738802,0 71.41363796892206,26.76871616786192,0 71.41706465138789,26.78181535610454,0 71.42010235866984,26.79499168256238,0 71.4227488088568,26.80823583354278,0 71.42500199437823,26.82153844423189,0 71.42686018379442,26.83489010526475,0 71.42832192339937,26.8482813693361,0 71.42938603863433,26.86170275784659,0 71.43005163530911,26.87514476758041,0 71.43031810063012,26.88859787740923,0 71.43018510403267,26.90205255501844,0 71.42965259781595,26.91549926365049,0 71.42872081757966,26.92892846886095,0 71.42739028245994,26.94233064528204,0 71.42566179516392,26.95569628338976,0 71.42353644180155,26.96901589626896,0 71.42101559151362,26.9822800263716,0 71.41810089589525,26.9954792522641,0 71.41479428821363,27.00860419535774,0 71.41109798242039,27.02164552661832,0 71.40701447195693,27.03459397324939,0 71.40254652835348,27.04744032534452,0 71.39769719962135,27.0601754425037,0 71.39246980843843,27.07279026040853,0 71.3868679501284,27.08527579735202,0 71.3808954904336,27.09762316071729,0 71.37455656308293,27.10982355340105,0 71.36785556715496,27.12186828017602,0 71.36079716423713,27.13374875398863,0 71.35338627538277,27.14545650218615,0 71.34562807786709,27.15698317266881,0 71.33752800174297,27.16832053996226,0 71.32909172619942,27.17946051120553,0 71.32032517572367,27.19039513204983,0 71.31123451606983,27.20111659246323,0 71.30182615003534,27.21161723243721,0 71.29210671304902,27.22188954759026,0 71.28208306857226,27.2319261946635,0 71.27176230331708,27.2417199969053,0 71.26115172228356,27.25126394933877,0 71.2502588436202,27.26055122390964,0 71.23909139331091,27.26957517450881,0 71.22765729969159,27.27832934186647,0 71.21596468780092,27.28680745831359,0 71.20402187356916,27.29500345240624,0 71.1918373578487,27.30291145341007,0 71.17941982029141,27.31052579564,0 71.16677811307733,27.31784102265242,0 71.15392125449888,27.32485189128586,0 71.1408584224061,27.33155337554718,0 71.1275989475178,27.33794067033953,0 71.11415230660398,27.34400919502938,0 71.10052811554442,27.34975459684928,0 71.08673612227017,27.35517275413387,0 71.07278619959204,27.36025977938559,0 71.05868833792347,27.36501202216864,0 71.04445263790264,27.36942607182766,0 71.03008930292052,27.37349876002927,0 71.01560863156108,27.37722716312457,0 71.0010210099594,27.38060860432977,0 70.98633690408488,27.38364065572389,0 70.97156685195561,27.3863211400615,0 70.95672145579069,27.38864813239856,0 70.94181137410702,27.39061996153061,0 70.92684731376777,27.39223521124164,0 70.91184002198837,27.39349272136267,0 70.89680027830853,27.39439158863908,0 70.88173888653556,27.39493116740611,0 70.86666666666666,27.39511107007139,0 70.85159444679776,27.39493116740611,0 
							</coordinates>
						</LinearRing>
					</outerBoundaryIs>
				</Polygon>
			</Placemark>
			<Placemark>
				<styleUrl>#falseColor</styleUrl>
				<ExtendedData>
					<SchemaData schemaUrl="#S_NOC_to_be_obtained_SSISSIIS">
						<SimpleData name="GM_LAYER">Unknown Area Type</SimpleData>
						<SimpleData name="KML_STYLE">PolyStyle008</SimpleData>
						<SimpleData name="FID">0</SimpleData>
						<SimpleData name="NAME">Uttarlai airfield</SimpleData>
						<SimpleData name="LAYER">Unknown Point Feature</SimpleData>
						<SimpleData name="BUFF_DIST">56</SimpleData>
						<SimpleData name="ORIG_FID">0</SimpleData>
						<SimpleData name="KML_FOLDER">NOC to be obtained</SimpleData>
					</SchemaData>
				</ExtendedData>
				<Polygon>
					<outerBoundaryIs>
						<LinearRing>
							<coordinates>
								71.46812552667059,26.31667443010222,0 71.45320621711562,26.31613488027445,0 71.43830833822246,26.31523606094337,0 71.42344258533335,26.31397861734452,0 71.40861962982383,26.31236345213382,0 71.39385011114528,26.31039172471389,0 71.37914462889586,26.30806485036932,0 71.3645137349249,26.30538449921154,0 71.34996792547888,26.30235259493338,0 71.33551763339442,26.29897131337547,0 71.32117322034635,26.29524308090473,0 71.30694496915588,26.29117057260734,0 71.29284307616666,26.28675671029685,0 71.27887764369429,26.28200466033951,0 71.26505867255598,26.27691783129892,0 71.25139605468688,26.27149987140143,0 71.23789956584795,26.26575466582508,0 71.22457885843312,26.25968633381383,0 71.21144345437999,26.25329922562001,0 71.19850273819117,26.24659791927701,0 71.18576595007053,26.23958721720573,0 71.17324217918127,26.23227214265676,0 71.16094035702965,26.2246579359919,0 71.14886925098095,26.21675005080791,0 71.13703745791157,26.20855414990579,0 71.12545339800275,26.20007610110871,0 71.11412530868057,26.1913219729326,0 71.10306123870637,26.18229803011213,0 71.09226904242237,26.17301072898686,0 71.08175637415643,26.16346671275022,0 71.07153068279017,26.15367280656597,0 71.0615992064937,26.14363601255607,0 71.05196896763169,26.13336350466335,0 71.04264676784291,26.12286262339418,0 71.03363918329754,26.11214087044439,0 71.02495256013468,26.10120590321337,0 71.01659301008345,26.09006552921059,0 71.00856640627012,26.07872770035879,0 71.00087837921343,26.06720050719851,0 70.99353431301118,26.05549217299854,0 70.98653934171966,26.04361104777701,0 70.97989834592813,26.03156560223728,0 70.97361594952959,26.01936442162411,0 70.96769651669034,26.00701619950413,0 70.96214414901885,25.99452973147595,0 70.95696268293547,25.98191390881441,0 70.95215568724397,25.96917771205374,0 70.94772646090587,25.95633020451491,0 70.94367803101802,25.94338052578154,0 70.94001315099376,25.93033788512976,0 70.93673429894874,25.91721155491623,0 70.93384367629034,25.90401086393019,0 70.93134320651154,25.89074519071348,0 70.92923453418923,25.87742395685417,0 70.92751902418541,25.8640566202581,0 70.92619776105235,25.85065266840377,0 70.92527154863956,25.83722161158512,0 70.92474090990292,25.82377297614708,0 70.92460608691447,25.81031629771864,0 70.92486704107162,25.79686111444896,0 70.92552345350504,25.78341696024965,0 70.92657472568347,25.76999335805049,0 70.92801998021407,25.75659981307044,0 70.92985806183674,25.74324580611105,0 70.9320875386105,25.72994078687541,0 70.93470670329064,25.71669416731795,0 70.93771357489342,25.70351531502941,0 70.94110590044785,25.69041354666123,0 70.94488115693105,25.6773981213946,0 70.94903655338561,25.6644782344577,0 70.95356903321627,25.65166301069581,0 70.95847527666362,25.63896149819883,0 70.96375170345199,25.62638266199019,0 70.96939447560912,25.6139353777812,0 70.9753995004551,25.60162842579505,0 70.98176243375671,25.58947048466504,0 70.98847868304578,25.5774701254097,0 70.99554341109767,25.56563580549027,0 71.0029515395663,25.55397586295326,0 71.01069775277462,25.54249851066213,0 71.01877650165488,25.5312118306222,0 71.02718200783757,25.52012376840169,0 71.03590826788417,25.50924212765294,0 71.04494905766181,25.4985745647372,0 71.05429793685516,25.48812858345615,0 71.06394825361319,25.47791152989369,0 71.07389314932652,25.46793058737082,0 71.08412556353235,25.45819277151746,0 71.09463823894355,25.44870492546333,0 71.10542372659756,25.43947371515186,0 71.11647439112249,25.43050562477882,0 71.12778241611596,25.42180695235988,0 71.13933980963361,25.41338380542838,0 71.15113840978282,25.4052420968668,0 71.16316989041894,25.39738754087459,0 71.1754257669394,25.38982564907377,0 71.18789740217223,25.38256172675592,0 71.20057601235523,25.37560086927163,0 71.21345267320214,25.36894795856593,0 71.22651832605139,25.36260765986007,0 71.23976378409428,25.35658441848313,0 71.25317973867799,25.3508824568546,0 71.26675676568057,25.34550577161988,0 71.28048533195273,25.34045813094021,0 71.29435580182349,25.33574307193893,0 71.30835844366536,25.33136389830573,0 71.32248343651531,25.32732367805921,0 71.33672087674736,25.32362524147083,0 71.35106078479281,25.32027117914962,0 71.36549311190473,25.3172638402904,0 71.38000774696184,25.31460533108523,0 71.3945945233086,25.31229751329975,0 71.40924322562715,25.31034200301501,0 71.42394359683715,25.30874016953591,0 71.43868534501944,25.30749313446591,0 71.45345815035996,25.30660177094963,0 71.46825167210953,25.3060667030833,0 71.48305555555555,25.30588830549359,0 71.49785943900149,25.3060667030833,0 71.5126529607511,25.30660177094963,0 71.52742576609167,25.30749313446591,0 71.54216751427391,25.30874016953591,0 71.55686788548387,25.31034200301501,0 71.57151658780246,25.31229751329975,0 71.58610336414922,25.31460533108523,0 71.60061799920634,25.3172638402904,0 71.61505032631821,25.32027117914962,0 71.6293902343637,25.32362524147083,0 71.64362767459575,25.32732367805921,0 71.65775266744571,25.33136389830573,0 71.67175530928762,25.33574307193893,0 71.68562577915833,25.34045813094021,0 71.69935434543049,25.34550577161988,0 71.71293137243303,25.3508824568546,0 71.72634732701681,25.35658441848313,0 71.73959278505963,25.36260765986007,0 71.75265843790892,25.36894795856593,0 71.76553509875583,25.37560086927163,0 71.77821370893888,25.38256172675592,0 71.79068534417166,25.38982564907377,0 71.80294122069211,25.39738754087459,0 71.81497270132824,25.40524209686684,0 71.82677130147745,25.41338380542838,0 71.8383286949951,25.42180695235988,0 71.84963671998861,25.43050562477882,0 71.86068738451354,25.43947371515186,0 71.87147287216756,25.44870492546333,0 71.88198554757871,25.45819277151746,0 71.89221796178454,25.46793058737082,0 71.90216285749783,25.47791152989369,0 71.9118131742559,25.48812858345615,0 71.92116205344928,25.4985745647372,0 71.93020284322689,25.50924212765294,0 71.93892910327354,25.52012376840169,0 71.94733460945618,25.5312118306222,0 71.95541335833644,25.54249851066213,0 71.96315957154476,25.55397586295326,0 71.97056770001342,25.56563580549027,0 71.97763242806523,25.5774701254097,0 71.98434867735439,25.58947048466504,0 71.99071161065596,25.60162842579505,0 71.9967166355019,25.6139353777812,0 72.00235940765911,25.62638266199019,0 72.00763583444744,25.63896149819883,0 72.01254207789479,25.65166301069581,0 72.01707455772545,25.6644782344577,0 72.02122995418001,25.6773981213946,0 72.02500521066321,25.69041354666123,0 72.02839753621767,25.70351531502941,0 72.03140440782046,25.71669416731795,0 72.03402357250052,25.72994078687541,0 72.03625304927435,25.74324580611105,0 72.03809113089699,25.75659981307044,0 72.0395363854276,25.76999335805049,0 72.04058765760603,25.78341696024965,0 72.04124407003947,25.79686111444896,0 72.04150502419664,25.81031629771864,0 72.04137020120818,25.82377297614708,0 72.04083956247155,25.83722161158512,0 72.03991335005874,25.85065266840377,0 72.03859208692565,25.8640566202581,0 72.03687657692187,25.87742395685421,0 72.03476790459952,25.89074519071348,0 72.03226743482077,25.90401086393019,0 72.02937681216228,25.91721155491623,0 72.0260979601173,25.93033788512976,0 72.02243308009308,25.94338052578154,0 72.01838465020519,25.95633020451491,0 72.01395542386713,25.96917771205374,0 72.00914842817559,25.98191390881441,0 72.00396696209221,25.99452973147595,0 71.99841459442077,26.00701619950413,0 71.99249516158147,26.01936442162411,0 71.98621276518297,26.03156560223728,0 71.9795717693914,26.04361104777701,0 71.97257679809988,26.05549217299854,0 71.96523273189767,26.06720050719851,0 71.95754470484093,26.07872770035879,0 71.94951810102761,26.09006552921059,0 71.94115855097643,26.10120590321337,0 71.93247192781352,26.11214087044439,0 71.92346434326815,26.12286262339418,0 71.91414214347937,26.13336350466335,0 71.90451190461737,26.14363601255607,0 71.89458042832094,26.15367280656601,0 71.88435473695463,26.16346671275022,0 71.87384206868869,26.17301072898686,0 71.86304987240469,26.18229803011213,0 71.85198580243049,26.1913219729326,0 71.84065771310831,26.20007610110871,0 71.82907365319952,26.20855414990579,0 71.81724186013015,26.21675005080791,0 71.80517075408142,26.2246579359919,0 71.79286893192983,26.23227214265676,0 71.78034516104053,26.23958721720573,0 71.7676083729199,26.24659791927701,0 71.75466765673107,26.25329922562001,0 71.74153225267794,26.25968633381383,0 71.72821154526311,26.26575466582508,0 71.71471505642418,26.27149987140143,0 71.70105243855504,26.27691783129892,0 71.68723346741685,26.28200466033951,0 71.6732680349444,26.28675671029685,0 71.65916614195514,26.29117057260734,0 71.64493789076471,26.29524308090473,0 71.63059347771664,26.29897131337547,0 71.61614318563221,26.30235259493338,0 71.60159737618612,26.30538449921154,0 71.5869664822152,26.30806485036932,0 71.57226099996574,26.31039172471385,0 71.55749148128723,26.31236345213382,0 71.54266852577771,26.31397861734452,0 71.52780277288861,26.31523606094337,0 71.51290489399544,26.31613488027445,0 71.49798558444047,26.31667443010222,0 71.48305555555555,26.31685432309241,0 71.46812552667059,26.31667443010222,0 
							</coordinates>
						</LinearRing>
					</outerBoundaryIs>
				</Polygon>
			</Placemark>
		</Folder>
	</Document>
	<Document>
		<name>Identified Wind Potential Blocks-new.shp</name>
		<Schema name="Identified Wind Potential Blocks-new" id="S_Identified_Wind_Potential_Blocks_new_SSIDDSSSS">
			<SimpleField type="string" name="NAME"><displayName>&lt;b&gt;NAME&lt;/b&gt;</displayName>
</SimpleField>
			<SimpleField type="string" name="LAYER"><displayName>&lt;b&gt;LAYER&lt;/b&gt;</displayName>
</SimpleField>
			<SimpleField type="int" name="FID"><displayName>&lt;b&gt;FID&lt;/b&gt;</displayName>
</SimpleField>
			<SimpleField type="double" name="SHAPE_Leng"><displayName>&lt;b&gt;SHAPE_Leng&lt;/b&gt;</displayName>
</SimpleField>
			<SimpleField type="double" name="SHAPE_Area"><displayName>&lt;b&gt;SHAPE_Area&lt;/b&gt;</displayName>
</SimpleField>
			<SimpleField type="string" name="Blocks"><displayName>&lt;b&gt;Blocks&lt;/b&gt;</displayName>
</SimpleField>
			<SimpleField type="string" name="Block_Name"><displayName>&lt;b&gt;Block_Name&lt;/b&gt;</displayName>
</SimpleField>
			<SimpleField type="string" name="KML_STYLE"><displayName>&lt;b&gt;KML_STYLE&lt;/b&gt;</displayName>
</SimpleField>
			<SimpleField type="string" name="KML_FOLDER"><displayName>&lt;b&gt;KML_FOLDER&lt;/b&gt;</displayName>
</SimpleField>
		</Schema>
		<Style id="falseColor2">
			<BalloonStyle>
				<text><![CDATA[<table border="0">
  <tr><td><b>NAME</b></td><td>$[Identified Wind Potential Blocks-new/NAME]</td></tr>
  <tr><td><b>LAYER</b></td><td>$[Identified Wind Potential Blocks-new/LAYER]</td></tr>
  <tr><td><b>FID</b></td><td>$[Identified Wind Potential Blocks-new/FID]</td></tr>
  <tr><td><b>SHAPE_Leng</b></td><td>$[Identified Wind Potential Blocks-new/SHAPE_Leng]</td></tr>
  <tr><td><b>SHAPE_Area</b></td><td>$[Identified Wind Potential Blocks-new/SHAPE_Area]</td></tr>
  <tr><td><b>Blocks</b></td><td>$[Identified Wind Potential Blocks-new/Blocks]</td></tr>
  <tr><td><b>Block_Name</b></td><td>$[Identified Wind Potential Blocks-new/Block_Name]</td></tr>
  <tr><td><b>KML_STYLE</b></td><td>$[Identified Wind Potential Blocks-new/KML_STYLE]</td></tr>
  <tr><td><b>KML_FOLDER</b></td><td>$[Identified Wind Potential Blocks-new/KML_FOLDER]</td></tr>
</table>
]]></text>
			</BalloonStyle>
			<LineStyle>
				<color>ffff5500</color>
				<width>2</width>
			</LineStyle>
			<PolyStyle>
				<colorMode>random</colorMode>
				<fill>0</fill>
			</PolyStyle>
		</Style>
		<StyleMap id="falseColor3">
			<Pair>
				<key>normal</key>
				<styleUrl>#falseColor4</styleUrl>
			</Pair>
			<Pair>
				<key>highlight</key>
				<styleUrl>#falseColor2</styleUrl>
			</Pair>
		</StyleMap>
		<Style id="falseColor4">
			<BalloonStyle>
				<text><![CDATA[<table border="0">
  <tr><td><b>NAME</b></td><td>$[Identified Wind Potential Blocks-new/NAME]</td></tr>
  <tr><td><b>LAYER</b></td><td>$[Identified Wind Potential Blocks-new/LAYER]</td></tr>
  <tr><td><b>FID</b></td><td>$[Identified Wind Potential Blocks-new/FID]</td></tr>
  <tr><td><b>SHAPE_Leng</b></td><td>$[Identified Wind Potential Blocks-new/SHAPE_Leng]</td></tr>
  <tr><td><b>SHAPE_Area</b></td><td>$[Identified Wind Potential Blocks-new/SHAPE_Area]</td></tr>
  <tr><td><b>Blocks</b></td><td>$[Identified Wind Potential Blocks-new/Blocks]</td></tr>
  <tr><td><b>Block_Name</b></td><td>$[Identified Wind Potential Blocks-new/Block_Name]</td></tr>
  <tr><td><b>KML_STYLE</b></td><td>$[Identified Wind Potential Blocks-new/KML_STYLE]</td></tr>
  <tr><td><b>KML_FOLDER</b></td><td>$[Identified Wind Potential Blocks-new/KML_FOLDER]</td></tr>
</table>
]]></text>
			</BalloonStyle>
			<LineStyle>
				<color>ffff5500</color>
				<width>2</width>
			</LineStyle>
			<PolyStyle>
				<colorMode>random</colorMode>
				<fill>0</fill>
			</PolyStyle>
		</Style>
		<Folder id="layer 0">
			<name>Identified Wind Potential Blocks-new</name>
			<Placemark>
				<styleUrl>#falseColor3</styleUrl>
				<ExtendedData>
					<SchemaData schemaUrl="#S_Identified_Wind_Potential_Blocks_new_SSIDDSSSS">
						<SimpleData name="NAME">Jaisalmar</SimpleData>
						<SimpleData name="LAYER">Unknown Area Type</SimpleData>
						<SimpleData name="FID">0</SimpleData>
						<SimpleData name="SHAPE_Leng">560711</SimpleData>
						<SimpleData name="SHAPE_Area">1.95971e+10</SimpleData>
						<SimpleData name="Blocks">Block 1</SimpleData>
						<SimpleData name="Block_Name">Jaisalmar</SimpleData>
						<SimpleData name="KML_STYLE">PolyStyle0040</SimpleData>
						<SimpleData name="KML_FOLDER">Identified Wind Potential Blocks</SimpleData>
					</SchemaData>
				</ExtendedData>
				<Polygon>
					<outerBoundaryIs>
						<LinearRing>
							<coordinates>
								70.37359980489219,26.07116206940503,0 71.69420066303172,26.08305937456923,0 71.6823554971222,27.39787282474515,0 70.36175463880625,27.38597551922087,0 70.37359980489219,26.07116206940503,0 
							</coordinates>
						</LinearRing>
					</outerBoundaryIs>
				</Polygon>
			</Placemark>
			<Placemark>
				<styleUrl>#falseColor3</styleUrl>
				<ExtendedData>
					<SchemaData schemaUrl="#S_Identified_Wind_Potential_Blocks_new_SSIDDSSSS">
						<SimpleData name="NAME">Barmer</SimpleData>
						<SimpleData name="LAYER">Unknown Area Type</SimpleData>
						<SimpleData name="FID">1</SimpleData>
						<SimpleData name="SHAPE_Leng">416318</SimpleData>
						<SimpleData name="SHAPE_Area">9.38908e+09</SimpleData>
						<SimpleData name="Blocks">Block 2</SimpleData>
						<SimpleData name="Block_Name">Barmer</SimpleData>
						<SimpleData name="KML_STYLE">PolyStyle0040</SimpleData>
						<SimpleData name="KML_FOLDER">Identified Wind Potential Blocks</SimpleData>
					</SchemaData>
				</ExtendedData>
				<Polygon>
					<outerBoundaryIs>
						<LinearRing>
							<coordinates>
								70.69666759261122,25.36852061957813,0 70.73502834264696,25.32918511954152,0 70.75713659266756,25.27303786948924,0 70.88506284278668,25.15152286937606,0 70.90794262788013,25.03701782359152,0 70.946587342844,24.92146061916181,0 70.99989434289364,24.8484443690938,0 71.04051684293147,24.76721611901814,0 71.05297434294306,24.74544986899785,0 71.06302109295247,24.71845986897272,0 71.12708154236783,24.66804034880443,0 71.34328230424254,24.6674413204585,0 71.34328230359398,25.93450430555415,0 70.69487917928775,25.93450430618417,0 70.69666759261122,25.36852061957813,0 
							</coordinates>
						</LinearRing>
					</outerBoundaryIs>
				</Polygon>
			</Placemark>
			<Placemark>
				<styleUrl>#falseColor3</styleUrl>
				<ExtendedData>
					<SchemaData schemaUrl="#S_Identified_Wind_Potential_Blocks_new_SSIDDSSSS">
						<SimpleData name="NAME">Barmer</SimpleData>
						<SimpleData name="LAYER">Unknown Area Type</SimpleData>
						<SimpleData name="FID">2</SimpleData>
						<SimpleData name="SHAPE_Leng">361383</SimpleData>
						<SimpleData name="SHAPE_Area">6.14761e+09</SimpleData>
						<SimpleData name="Blocks">Block 3</SimpleData>
						<SimpleData name="Block_Name">Barmer</SimpleData>
						<SimpleData name="KML_STYLE">PolyStyle0040</SimpleData>
						<SimpleData name="KML_FOLDER">Identified Wind Potential Blocks</SimpleData>
					</SchemaData>
				</ExtendedData>
				<Polygon>
					<outerBoundaryIs>
						<LinearRing>
							<coordinates>
								71.99763408043604,24.73096809995722,0 72.44505420037724,24.73096810043675,0 72.44505419969867,25.94045295807049,0 71.99763408000143,25.9404529586463,0 71.99763408043604,24.73096809995722,0 
							</coordinates>
						</LinearRing>
					</outerBoundaryIs>
				</Polygon>
			</Placemark>
			<Placemark>
				<styleUrl>#falseColor3</styleUrl>
				<ExtendedData>
					<SchemaData schemaUrl="#S_Identified_Wind_Potential_Blocks_new_SSIDDSSSS">
						<SimpleData name="NAME">Chittorgarh</SimpleData>
						<SimpleData name="LAYER">Unknown Area Type</SimpleData>
						<SimpleData name="FID">3</SimpleData>
						<SimpleData name="SHAPE_Leng">309938</SimpleData>
						<SimpleData name="SHAPE_Area">5.30659e+09</SimpleData>
						<SimpleData name="Blocks">Block 4</SimpleData>
						<SimpleData name="Block_Name">Chittorgarh</SimpleData>
						<SimpleData name="KML_STYLE">PolyStyle0040</SimpleData>
						<SimpleData name="KML_FOLDER">Identified Wind Potential Blocks</SimpleData>
					</SchemaData>
				</ExtendedData>
				<Polygon>
					<outerBoundaryIs>
						<LinearRing>
							<coordinates>
								74.47900527354979,23.54349075884412,0 74.81772909644927,23.53833336787367,0 74.86799884649609,23.57228061790526,0 74.873270346501,23.58757136791951,0 74.8848100965118,23.60387786793474,0 74.90482784653035,23.62036986795005,0 74.92077359654523,23.6197163679495,0 74.93923234656245,23.63430186796302,0 74.92950959655339,23.64560811797357,0 74.92311009654743,23.66588086799243,0 74.90648859653199,23.68022286800579,0 74.92197584654639,23.69395786801864,0 74.92184459654619,23.71123936803469,0 74.93957659656274,23.73221561805421,0 74.93094984655473,23.75376511807427,0 74.93897084656219,23.76318236808304,0 74.92667984655074,23.7956673681133,0 74.90936734653461,23.79818611811567,0 74.91233859653737,23.83396886814897,0 74.90933559653462,23.8494638681634,0 74.90963934653489,23.88583511819728,0 74.91663409654134,23.91486811822434,0 74.92909884655302,23.93824461824613,0 74.94076084656389,23.95778361826431,0 74.96806109658927,23.9769533682822,0 74.97165009659263,24.0008473683044,0 74.99185359661146,24.02042686832266,0 74.98069809660105,24.03823161833923,0 74.97892634659938,24.06920536836812,0 74.96465859658612,24.07991836837806,0 74.95439459657656,24.10924236840538,0 74.93847859656175,24.12509786842014,0 74.9361765965596,24.13619111843049,0 74.92416134654843,24.14245336843628,0 74.92702459655105,24.15436911844737,0 74.91008540122236,24.16561956904383,0 74.89124391254558,24.1933586258655,0 74.88624684651306,24.22216261851055,0 74.90686784653228,24.23802486852532,0 74.89389459652021,24.25889611854473,0 74.86929184649728,24.27795686856252,0 74.83840209646856,24.26852611855372,0 74.80386449548189,24.27212116356996,0 74.76581484640094,24.27079461855584,0 74.75235309638836,24.28677286857073,0 74.78307209641703,24.31413561859621,0 74.78570059641945,24.34613411862599,0 74.78412859641799,24.36468086864325,0 74.79789534643083,24.38146211865887,0 74.8119375964439,24.40643061868213,0 74.82488709645595,24.40559786868137,0 74.82668934645763,24.42086511869559,0 74.83538006086515,24.42731608595069,0 74.84055886490025,24.43271441563,0 74.847492346477,24.44078911871413,0 74.8572725964861,24.44871961872154,0 74.85778897598477,24.45173727556763,0 74.85673984648558,24.46049711873251,0 74.85793459648671,24.46454236873628,0 74.85047109647978,24.46605036873767,0 74.84913184647856,24.4638588687356,0 74.84431909647408,24.46313561873495,0 74.84061734647059,24.4644578687362,0 74.83625684646655,24.46262336873446,0 74.83351384646394,24.45766436872986,0 74.49011948391284,24.47708443974556,0 74.47900527354979,23.54349075884412,0 
							</coordinates>
						</LinearRing>
					</outerBoundaryIs>
				</Polygon>
			</Placemark>
		</Folder>
	</Document>
	<Folder>
		<name>No WTG Zone</name>
		<Document id="UtarlaiAirfield_20km" xsi:schemaLocation="http://www.opengis.net/kml/2.2 http://schemas.opengis.net/kml/2.2.0/ogckml22.xsd http://www.google.com/kml/ext/2.2 http://code.google.com/apis/kml/schema/kml22gx.xsd">
			<name>UtarlaiAirfield_20km</name>
			<Snippet maxLines="0"></Snippet>
			<StyleMap id="PolyStyle0050">
				<Pair>
					<key>normal</key>
					<styleUrl>#PolyStyle0052</styleUrl>
				</Pair>
				<Pair>
					<key>highlight</key>
					<styleUrl>#PolyStyle0051</styleUrl>
				</Pair>
			</StyleMap>
			<Style id="PolyStyle0051">
				<LabelStyle>
					<color>00000000</color>
					<scale>0</scale>
				</LabelStyle>
				<LineStyle>
					<color>ff000000</color>
					<width>2</width>
				</LineStyle>
				<PolyStyle>
					<color>00ccf000</color>
					<fill>0</fill>
				</PolyStyle>
			</Style>
			<Style id="PolyStyle0052">
				<LabelStyle>
					<color>00000000</color>
					<scale>0</scale>
				</LabelStyle>
				<LineStyle>
					<color>ff000000</color>
					<width>2</width>
				</LineStyle>
				<PolyStyle>
					<color>00ccf000</color>
					<fill>0</fill>
				</PolyStyle>
			</Style>
			<Folder id="FeatureLayer0">
				<name>UtarlaiAirfield_20km</name>
				<Snippet maxLines="0"></Snippet>
				<Placemark id="ID_00000">
					<name>Uttarlai airfield</name>
					<Snippet maxLines="0"></Snippet>
					<description><![CDATA[<html xmlns:fo="http://www.w3.org/1999/XSL/Format" xmlns:msxsl="urn:schemas-microsoft-com:xslt">

<head>

<META http-equiv="Content-Type" content="text/html">

<meta http-equiv="content-type" content="text/html; charset=UTF-8">

</head>

<body style="margin:0px 0px 0px 0px;overflow:auto;background:#FFFFFF;">

<table style="font-family:Arial,Verdana,Times;font-size:12px;text-align:left;width:100%;border-collapse:collapse;padding:3px 3px 3px 3px">

<tr style="text-align:center;font-weight:bold;background:#9CBCE2">

<td>Uttarlai airfield</td>

</tr>

<tr>

<td>

<table style="font-family:Arial,Verdana,Times;font-size:12px;text-align:left;width:100%;border-spacing:0px; padding:3px 3px 3px 3px">

<tr>

<td>NAME</td>

<td>Uttarlai airfield</td>

</tr>

<tr bgcolor="#D4E4F3">

<td>LAYER</td>

<td>Unknown Point Feature</td>

</tr>

<tr>

<td>BUFF_DIST</td>

<td>20</td>

</tr>

<tr bgcolor="#D4E4F3">

<td>ORIG_FID</td>

<td>0</td>

</tr>

</table>

</td>

</tr>

</table>

</body>

</html>]]></description>
					<styleUrl>#PolyStyle0050</styleUrl>
					<MultiGeometry>
						<Polygon>
							<outerBoundaryIs>
								<LinearRing>
									<coordinates>
										71.48305555516981,25.9919163181836,0 71.47415729772115,25.99173683778491,0 71.46527678749379,25.99119875451896,0 71.45643173573609,25.99030314127703,0 71.4476397826499,25.98905178321326,0 71.43891846141793,25.98744717774508,0 71.43028516043188,25.98549252376103,0 71.42175709271572,25.98319171892274,0 71.41335125725476,25.98054935157137,0 71.40508440662012,25.97757068993542,0 71.39697301099574,25.97426167223841,0 71.38903322940007,25.97062889500757,0 71.3812808728141,25.96667960138257,0 71.37373137360407,25.96242166133067,0 71.36639975764274,25.95786356175404,0 71.35930060923579,25.953014384906,0 71.35244804414197,25.94788379490126,0 71.34585568259371,25.94248201163561,0 71.33953662051869,25.93681979549723,0 71.33350340435868,25.93090842488397,0 71.32776800678812,25.9247596728207,0 71.32234179973432,25.91838577997981,0 71.31723553549165,25.91179943849335,0 71.31245932513781,25.90501375687944,0 71.30802261695027,25.89804223935789,0 71.30393417752032,25.89089876066931,0 71.30020207916266,25.88359753010201,0 71.29683367743235,25.87615307170694,0 71.29383560393001,25.86858019102306,0 71.29121374741658,25.86089394539931,0 71.28897324751739,25.85310961611594,0 71.28711848213231,25.84524267421011,0 71.28565305934126,25.83730875349625,0 71.2845798138074,25.82932361908979,0 71.28390079868296,25.82130313143443,0 71.2836172811127,25.81326321932215,0 71.28372974493186,25.80521984931664,0 71.28423788616959,25.79718898888081,0 71.28514061754549,25.78918657759851,0 71.28643606757049,25.78122849749724,0 71.28812158774116,25.77333053617537,0 71.29019375793564,25.76550836342028,0 71.29264839270922,25.75777749073865,0 71.29548055028721,25.75015324977272,0 71.29868454515571,25.74265075542809,0 71.30225395795384,25.73528487889411,0 71.306181646266,25.72807021886558,0 71.31045976530601,25.7210210700664,0 71.31507977780956,25.71415139896794,0 71.32003247471897,25.7074748123128,0 71.32530799406874,25.70100453373232,0 71.33089583897186,25.69475337406902,0 71.33678489740515,25.68873371069225,0 71.34296346918882,25.68295745871978,0 71.34941928487217,25.67743605213212,0 71.35613953181399,25.67218041679286,0 71.36311088026298,25.66720095336137,0 71.37031950673992,25.66250751211203,0 71.37775112551407,25.65810937854502,0 71.38539101378433,25.65401525360113,0 71.39322404225578,25.65023323207805,0 71.40123470391853,25.64677079543588,0 71.40940714372476,25.64363479021347,0 71.4177251927635,25.64083141723614,0 71.42617239523992,25.63836621902584,0 71.43473204534769,25.63624406900863,0 71.44338721694658,25.6344691625219,0 71.45212079773665,25.63304500961954,0 71.46091552343273,25.63197442428032,0 71.46975400834089,25.63125952260896,0 71.4786187831304,25.63090171833966,0 71.48749232810849,25.63090171833966,0 71.49635710289806,25.63125952260896,0 71.50519558780621,25.63197442428032,0 71.51399031350223,25.63304500961954,0 71.52272389429237,25.6344691625219,0 71.53137906589126,25.63624406900863,0 71.53993871599903,25.63836621902584,0 71.54838591847539,25.64083141723614,0 71.5567039666148,25.64363479021347,0 71.56487640732041,25.64677079543588,0 71.57288706808379,25.65023323207805,0 71.58072009745462,25.65401525360113,0 71.58835998572482,25.65810937854502,0 71.59579160449903,25.66250751211203,0 71.60300023097591,25.66720095336137,0 71.60997157852557,25.67218041679286,0 71.61669182636678,25.67743605213212,0 71.62314764205007,25.68295745871978,0 71.62932621383374,25.68873371069225,0 71.63521527226703,25.69475337406902,0 71.64080311627083,25.70100453373232,0 71.64607863651992,25.7074748123128,0 71.65103133342933,25.71415139896794,0 71.65565134593294,25.7210210700664,0 71.65992946497289,25.72807021886558,0 71.66385715328505,25.73528487889411,0 71.66742656608324,25.74265075542809,0 71.67063056095168,25.75015324977272,0 71.67346271852972,25.75777749073865,0 71.67591735330325,25.76550836342028,0 71.67798952349779,25.77333053617537,0 71.6796750436684,25.78122849749724,0 71.68097049369339,25.78918657759851,0 71.68187322417003,25.79718898888081,0 71.68238136630708,25.80521984931664,0 71.68249383012619,25.81326321932215,0 71.68221031255592,25.82130313143443,0 71.68153129653217,25.82932361908979,0 71.68045805189763,25.83730875349625,0 71.67899262910663,25.84524267421011,0 71.6771378637215,25.85310961611594,0 71.67489736382231,25.86089394539931,0 71.67227550730888,25.86858019102306,0 71.6692774338066,25.87615307170694,0 71.66590903207623,25.88359753010201,0 71.66217693371857,25.89089876066931,0 71.65808849428862,25.89804223935789,0 71.65365178610108,25.90501375687944,0 71.6488755757473,25.91179943849335,0 71.64376931150457,25.91838577997981,0 71.63834310445077,25.9247596728207,0 71.63260770688021,25.93090842488397,0 71.6265744907202,25.93681979549723,0 71.62025542864518,25.94248201163561,0 71.61366306709692,25.94788379490126,0 71.6068105020031,25.953014384906,0 71.59971135359615,25.95786356175404,0 71.5923797367355,25.96242166133067,0 71.58483023842484,25.96667960138257,0 71.57707788183882,25.97062889500757,0 71.56913810024321,25.97426167223841,0 71.56102670461877,25.97757068993542,0 71.55275985398413,25.98054935157137,0 71.54435401762385,25.98319171892274,0 71.53582595080707,25.98549252376103,0 71.52719264982096,25.98744717774508,0 71.51847132858899,25.98905178321326,0 71.50967937550286,25.99030314127703,0 71.5008343237451,25.99119875451896,0 71.49195381351774,25.99173683778491,0 71.48305555516981,25.9919163181836,0 
									</coordinates>
								</LinearRing>
							</outerBoundaryIs>
						</Polygon>
					</MultiGeometry>
				</Placemark>
			</Folder>
		</Document>
		<Document id="Jailsalmer_1" xsi:schemaLocation="http://www.opengis.net/kml/2.2 http://schemas.opengis.net/kml/2.2.0/ogckml22.xsd http://www.google.com/kml/ext/2.2 http://code.google.com/apis/kml/schema/kml22gx.xsd">
			<name>Jailsalmer_1</name>
			<Snippet maxLines="0"></Snippet>
			<Style id="PolyStyle0000">
				<LabelStyle>
					<color>00000000</color>
					<scale>0</scale>
				</LabelStyle>
				<LineStyle>
					<color>ff000000</color>
					<width>2</width>
				</LineStyle>
				<PolyStyle>
					<color>00f0f0f0</color>
				</PolyStyle>
			</Style>
			<Folder id="FeatureLayer0">
				<name>Jailsalmer_1</name>
				<Snippet maxLines="0"></Snippet>
				<Placemark id="ID_00000">
					<name>0</name>
					<Snippet maxLines="0"></Snippet>
					<description><![CDATA[<html xmlns:fo="http://www.w3.org/1999/XSL/Format" xmlns:msxsl="urn:schemas-microsoft-com:xslt">

<head>

<META http-equiv="Content-Type" content="text/html">

<meta http-equiv="content-type" content="text/html; charset=UTF-8">

</head>

<body style="margin:0px 0px 0px 0px;overflow:auto;background:#FFFFFF;">

<table style="font-family:Arial,Verdana,Times;font-size:12px;text-align:left;width:100%;border-collapse:collapse;padding:3px 3px 3px 3px">

<tr style="text-align:center;font-weight:bold;background:#9CBCE2">

<td>0</td>

</tr>

<tr>

<td>

<table style="font-family:Arial,Verdana,Times;font-size:12px;text-align:left;width:100%;border-spacing:0px; padding:3px 3px 3px 3px">

<tr>

<td>FID</td>

<td>0</td>

</tr>

<tr bgcolor="#D4E4F3">

<td>Id</td>

<td>0</td>

</tr>

</table>

</td>

</tr>

</table>

</body>

</html>]]></description>
					<styleUrl>#PolyStyle0000</styleUrl>
					<MultiGeometry>
						<Polygon>
							<outerBoundaryIs>
								<LinearRing>
									<coordinates>
										70.54638888888894,27.02972222222223,0 70.30111111111114,26.67083333333335,0 70.86638888888893,26.89000000000004,0 70.54638888888894,27.02972222222223,0 
									</coordinates>
								</LinearRing>
							</outerBoundaryIs>
						</Polygon>
					</MultiGeometry>
				</Placemark>
			</Folder>
		</Document>
		<Document id="Jailsalmer_2" xsi:schemaLocation="http://www.opengis.net/kml/2.2 http://schemas.opengis.net/kml/2.2.0/ogckml22.xsd http://www.google.com/kml/ext/2.2 http://code.google.com/apis/kml/schema/kml22gx.xsd">
			<name>Jailsalmer_2</name>
			<Snippet maxLines="0"></Snippet>
			<Style id="PolyStyle0010">
				<LabelStyle>
					<color>00000000</color>
					<scale>0</scale>
				</LabelStyle>
				<LineStyle>
					<color>ff000000</color>
					<width>2</width>
				</LineStyle>
				<PolyStyle>
					<color>00f0f0f0</color>
				</PolyStyle>
			</Style>
			<Folder id="FeatureLayer0">
				<name>Jailsalmer_2</name>
				<Snippet maxLines="0"></Snippet>
				<Placemark id="ID_00000">
					<name>0</name>
					<Snippet maxLines="0"></Snippet>
					<description><![CDATA[<html xmlns:fo="http://www.w3.org/1999/XSL/Format" xmlns:msxsl="urn:schemas-microsoft-com:xslt">

<head>

<META http-equiv="Content-Type" content="text/html">

<meta http-equiv="content-type" content="text/html; charset=UTF-8">

</head>

<body style="margin:0px 0px 0px 0px;overflow:auto;background:#FFFFFF;">

<table style="font-family:Arial,Verdana,Times;font-size:12px;text-align:left;width:100%;border-collapse:collapse;padding:3px 3px 3px 3px">

<tr style="text-align:center;font-weight:bold;background:#9CBCE2">

<td>0</td>

</tr>

<tr>

<td>

<table style="font-family:Arial,Verdana,Times;font-size:12px;text-align:left;width:100%;border-spacing:0px; padding:3px 3px 3px 3px">

<tr>

<td>FID</td>

<td>0</td>

</tr>

<tr bgcolor="#D4E4F3">

<td>Id</td>

<td>0</td>

</tr>

</table>

</td>

</tr>

</table>

</body>

</html>]]></description>
					<styleUrl>#PolyStyle0010</styleUrl>
					<MultiGeometry>
						<Polygon>
							<outerBoundaryIs>
								<LinearRing>
									<coordinates>
										71.19999999999999,26.96916666666664,0 71.33722222222224,26.71500000000009,0 71.49444444444447,26.7577777777779,0 71.50083333333333,26.99777777777791,0 71.19999999999999,26.96916666666664,0 
									</coordinates>
								</LinearRing>
							</outerBoundaryIs>
						</Polygon>
					</MultiGeometry>
				</Placemark>
			</Folder>
		</Document>
		<Document id="Jaisalmer airfield_20km" xsi:schemaLocation="http://www.opengis.net/kml/2.2 http://schemas.opengis.net/kml/2.2.0/ogckml22.xsd http://www.google.com/kml/ext/2.2 http://code.google.com/apis/kml/schema/kml22gx.xsd">
			<name>Jaisalmer airfield_20km</name>
			<Snippet maxLines="0"></Snippet>
			<Style id="PolyStyle0020">
				<LabelStyle>
					<color>00000000</color>
					<scale>0</scale>
				</LabelStyle>
				<LineStyle>
					<color>ff000000</color>
					<width>2</width>
				</LineStyle>
				<PolyStyle>
					<color>00f0f0f0</color>
				</PolyStyle>
			</Style>
			<Folder id="FeatureLayer0">
				<name>Jaisalmer airfield_20km</name>
				<Snippet maxLines="0"></Snippet>
				<Placemark id="ID_00000">
					<name>Jaisalmer airfield</name>
					<Snippet maxLines="0"></Snippet>
					<description><![CDATA[<html xmlns:fo="http://www.w3.org/1999/XSL/Format" xmlns:msxsl="urn:schemas-microsoft-com:xslt">

<head>

<META http-equiv="Content-Type" content="text/html">

<meta http-equiv="content-type" content="text/html; charset=UTF-8">

</head>

<body style="margin:0px 0px 0px 0px;overflow:auto;background:#FFFFFF;">

<table style="font-family:Arial,Verdana,Times;font-size:12px;text-align:left;width:100%;border-collapse:collapse;padding:3px 3px 3px 3px">

<tr style="text-align:center;font-weight:bold;background:#9CBCE2">

<td>Jaisalmer airfield</td>

</tr>

<tr>

<td>

<table style="font-family:Arial,Verdana,Times;font-size:12px;text-align:left;width:100%;border-spacing:0px; padding:3px 3px 3px 3px">

<tr>

<td>NAME</td>

<td>Jaisalmer airfield</td>

</tr>

<tr bgcolor="#D4E4F3">

<td>LAYER</td>

<td>Unknown Point Feature</td>

</tr>

<tr>

<td>BUFF_DIST</td>

<td>20</td>

</tr>

<tr bgcolor="#D4E4F3">

<td>ORIG_FID</td>

<td>0</td>

</tr>

</table>

</td>

</tr>

</table>

</body>

</html>]]></description>
					<styleUrl>#PolyStyle0020</styleUrl>
					<MultiGeometry>
						<Polygon>
							<outerBoundaryIs>
								<LinearRing>
									<coordinates>
										70.86666666663342,27.07022241453285,0 70.85768485677079,27.07004294852328,0 70.84872096410129,27.06950490662621,0 70.83979287254311,27.06860936353138,0 70.83091838867273,27.06735810439307,0 70.82211521564471,27.06575362572932,0 70.81340090822539,27.06379912822723,0 70.80479284491389,27.06149850954864,0 70.79630818567426,27.05885635803458,0 70.78796384495553,27.05587794281286,0 70.77977645032297,27.05256920390571,0 70.77176231457923,27.04893673873954,0 70.76393739799261,27.04498778865559,0 70.75631728131754,27.04073022631894,0 70.74891713072105,27.03617253953115,0 70.74175166900437,27.03132381234411,0 70.73483514502595,27.02619370617464,0 70.72818130672198,27.02079244541505,0 70.72180337322715,27.01513078955436,0 70.71571400699588,27.00922001699024,0 70.70992529131922,27.00307190164699,0 70.70444870424438,26.99669868599563,0 70.69929509699119,26.9901130612688,0 70.6944746723683,26.98332813598472,0 70.68999696408866,26.97635741526256,0 70.68587081968263,26.96921477294347,0 70.68210438071264,26.96191441831581,0 70.6787050701829,26.95447087543062,0 70.6756795763514,26.94689894892741,0 70.67303384013968,26.93921369615521,0 70.67077304344127,26.93143039569629,0 70.66890160012878,26.92356451858774,0 70.66742314975863,26.91563169774469,0 70.66634054498024,26.90764769468541,0 70.66565585423433,26.8996283689541,0 70.66537035275962,26.89158964934291,0 70.66548452169337,26.88354749701944,0 70.66599805076947,26.87551787854733,0 70.66690983562046,26.86751673171187,0 70.66821798317346,26.85955993314445,0 70.66991981524734,26.8516632695443,0 70.67201187484818,26.84384240620216,0 70.6744899324645,26.83611285282592,0 70.67734899775809,26.82848993566204,0 70.68058332585986,26.82098876691811,0 70.68418643445642,26.81362421418618,0 70.68815111188434,26.80641087166447,0 70.69246943511638,26.79936303047953,0 70.69713278774799,26.79249465260619,0 70.70213187078929,26.78581934118972,0 70.70745672784579,26.77935031446549,0 70.71309676310517,26.77310038147749,0 70.7190407611223,26.76708191329971,0 70.72527691020127,26.76130682325135,0 70.73179282757701,26.75578653811829,0 70.73857558189763,26.75053198286474,0 70.74561171930543,26.74555355275429,0 70.75288728861756,26.74086109446398,0 70.76038787370146,26.73646388989664,0 70.76809861685774,26.73237063639579,0 70.77600424849732,26.72858942696053,0 70.78408912131596,26.72512773765504,0 70.79233723547509,26.72199241411869,0 70.80073227547422,26.71918965357969,0 70.80925763533168,26.71672499586191,0 70.8178964590544,26.71460331349216,0 70.82663166761745,26.71282880090848,0 70.83544599223882,26.71140496276888,0 70.84432201305054,26.71033461574996,0 70.85324218877605,26.70961987325859,0 70.86218889090463,26.70926214902903,0 70.87114444236221,26.70926214902903,0 70.88009114449079,26.70961987325859,0 70.8890113202163,26.71033461574996,0 70.89788734102802,26.71140496276888,0 70.90670166654871,26.71282880090848,0 70.91543687421245,26.71460331349216,0 70.92407569793517,26.71672499586191,0 70.93260105779262,26.71918965357969,0 70.94099609779175,26.72199241411869,0 70.94924421195088,26.72512773765504,0 70.95732908476953,26.72858942696053,0 70.9652347164091,26.73237063639579,0 70.97294545956538,26.73646388989664,0 70.98044604464928,26.74086109446398,0 70.98772161396136,26.74555355275429,0 70.99475775136921,26.75053198286474,0 71.00154050568983,26.75578653811829,0 71.00805642306551,26.76130682325135,0 71.01429257304386,26.76708191329971,0 71.02023657016161,26.77310038147749,0 71.02587660542105,26.77935031446549,0 71.03120146247755,26.78581934118972,0 71.0362005455188,26.79249465260619,0 71.04086389815046,26.79936303047953,0 71.04518222138245,26.80641087166447,0 71.04914689881036,26.81362421418618,0 71.05275000740698,26.82098876691811,0 71.05598433550875,26.82848993566204,0 71.05884340080235,26.83611285282592,0 71.0613214584186,26.84384240620216,0 71.0634135180195,26.8516632695443,0 71.06511535009338,26.85955993314445,0 71.06642349764638,26.86751673171187,0 71.06733528249737,26.87551787854733,0 71.06784881157347,26.88354749701944,0 71.06796298050722,26.89158964934291,0 71.06767747903251,26.8996283689541,0 71.0669927882866,26.90764769468541,0 71.06591018350821,26.91563169774469,0 71.06443173313801,26.92356451858774,0 71.06256028982557,26.93143039569629,0 71.06029949312716,26.93921369615521,0 71.05765375691539,26.94689894892741,0 71.05462826308394,26.95447087543062,0 71.0512289525542,26.96191441831581,0 71.04746251358421,26.96921477294347,0 71.04333636917818,26.97635741526256,0 71.03885866089854,26.98332813598472,0 71.03403823627565,26.9901130612688,0 71.02888462902246,26.99669868599563,0 71.02340804194762,27.00307190164699,0 71.01761932627096,27.00922001699024,0 71.0115299600397,27.01513078955436,0 71.00515202654486,27.02079244541505,0 70.99849818824083,27.02619370617464,0 70.99158166426247,27.03132381234411,0 70.98441620254579,27.03617253953115,0 70.97701605194931,27.04073022631894,0 70.96939593527424,27.04498778865559,0 70.96157101868761,27.04893673873954,0 70.95355688294387,27.05256920390571,0 70.94536948831131,27.05587794281286,0 70.93702514759252,27.05885635803458,0 70.92854048835289,27.06149850954864,0 70.91993242504145,27.06379912822723,0 70.91121811762207,27.06575362572932,0 70.90241494459406,27.06735810439307,0 70.89354046072373,27.06860936353138,0 70.88461236916555,27.06950490662621,0 70.87564847649605,27.07004294852328,0 70.86666666663342,27.07022241453285,0 
									</coordinates>
								</LinearRing>
							</outerBoundaryIs>
						</Polygon>
					</MultiGeometry>
				</Placemark>
			</Folder>
		</Document>
	</Folder>
	<atom:link rel="app" href="https://www.google.com/earth/about/versions/#earth-pro" title="Google Earth Pro 7.3.6.10201"></atom:link>
</Folder>
</kml>
