<?xml version="1.0" encoding="UTF-8"?>
<kml xmlns="http://www.opengis.net/kml/2.2" xmlns:gx="http://www.google.com/kml/ext/2.2" xmlns:kml="http://www.opengis.net/kml/2.2" xmlns:atom="http://www.w3.org/2005/Atom">
<Folder>
	<name>TN</name>
	<open>1</open>
	<Document id="Kanyakumari_10km" xsi:schemaLocation="http://www.opengis.net/kml/2.2 http://schemas.opengis.net/kml/2.2.0/ogckml22.xsd http://www.google.com/kml/ext/2.2 http://code.google.com/apis/kml/schema/kml22gx.xsd">
		<name>Kanyakumari_10km</name>
		<Snippet maxLines="0"></Snippet>
		<Style id="PolyStyle00">
			<LabelStyle>
				<color>00000000</color>
				<scale>0</scale>
			</LabelStyle>
			<LineStyle>
				<color>ff000000</color>
				<width>2</width>
			</LineStyle>
			<PolyStyle>
				<color>00f0f0f0</color>
			</PolyStyle>
		</Style>
		<Folder id="FeatureLayer0">
			<name>Kanyakumari_10km</name>
			<Snippet maxLines="0"></Snippet>
			<Placemark id="ID_00000">
				<name>Kanyakumari</name>
				<Snippet maxLines="0"></Snippet>
				<description><![CDATA[<html xmlns:fo="http://www.w3.org/1999/XSL/Format" xmlns:msxsl="urn:schemas-microsoft-com:xslt">

<head>

<META http-equiv="Content-Type" content="text/html">

<meta http-equiv="content-type" content="text/html; charset=UTF-8">

</head>

<body style="margin:0px 0px 0px 0px;overflow:auto;background:#FFFFFF;">

<table style="font-family:Arial,Verdana,Times;font-size:12px;text-align:left;width:100%;border-collapse:collapse;padding:3px 3px 3px 3px">

<tr style="text-align:center;font-weight:bold;background:#9CBCE2">

<td>Kanyakumari</td>

</tr>

<tr>

<td>

<table style="font-family:Arial,Verdana,Times;font-size:12px;text-align:left;width:100%;border-spacing:0px; padding:3px 3px 3px 3px">

<tr>

<td>NAME</td>

<td>Kanyakumari</td>

</tr>

<tr bgcolor="#D4E4F3">

<td>LAYER</td>

<td>Unknown Point Feature</td>

</tr>

<tr>

<td>BUFF_DIST</td>

<td>10</td>

</tr>

<tr bgcolor="#D4E4F3">

<td>ORIG_FID</td>

<td>0</td>

</tr>

</table>

</td>

</tr>

</table>

</body>

</html>]]></description>
				<styleUrl>#PolyStyle00</styleUrl>
				<MultiGeometry>
					<Polygon>
						<outerBoundaryIs>
							<LinearRing>
								<coordinates>
									77.71222222227777,8.25930729949232,0 77.709665143032,8.259271403952198,0 77.70711009625398,8.259163744311422,0 77.70455910901575,8.258984407804235,0 77.70201421018771,8.258733534724911,0 77.69947741874796,8.258411326521525,0 77.69695075187576,8.2580180377023,0 77.69443621685798,8.257553981231297,0 77.69193580839089,8.257019525830515,0 77.68945151577486,8.256415095080627,0 77.68698531032385,8.255741170118938,0 77.6845391516606,8.254998286941429,0 77.68211498232063,8.254187033704682,0 77.67971472775253,8.253308056121966,0 77.67734029451901,8.252362052067099,0 77.67499356939777,8.251349773373363,0 77.67267641488468,8.250272023135381,0 77.67039067189205,8.249129657507751,0 77.66813815525171,8.247923584805619,0 77.66592065461458,8.246654762807111,0 77.66373992995386,8.245324198752826,0 77.66159771336385,8.243932950245494,0 77.65949570726116,8.242482120753323,0 77.65743557808952,8.240972864106425,0 77.65541896441374,8.239406379101183,0 77.6534474652284,8.237783908600534,0 77.65152264715249,8.236106742232437,0 77.6496460372349,8.234376210993389,0 77.6478191265515,8.232593690846215,0 77.64604336391017,8.230760596424432,0 77.64432016034721,8.228878383730489,0 77.6426508819327,8.226948548336907,0 77.64103685516682,8.224972621789107,0 77.63947936068399,8.22295217250479,0 77.63797963415283,8.220888807572464,0 77.63653886537639,8.218784162858867,0 77.63515819739297,8.216639912002393,0 77.63383872647609,8.21445775562097,0 77.6325814994367,8.212239428506848,0 77.63138751272356,8.209986691532663,0 77.63025771422218,8.207701332550528,0 77.62919299875796,8.205385166392375,0 77.6281942116936,8.203040033970467,0 77.62726214443245,8.200667795982042,0 77.62639753621738,8.19827033560756,0 77.62560107233168,8.195849556711721,0 77.62487338320011,8.193407382045109,0 77.62421504618749,8.190945750546007,0 77.62362658200124,8.188466616441247,0 77.62310845738943,8.185971947447456,0 77.62266108154375,8.183463723871796,0 77.62228480879696,8.180943938611904,0 77.62197993592537,8.178414590860712,0 77.62174670394728,8.175877688804349,0 77.62158529722376,8.173335246924182,0 77.62149584165979,8.170789283298859,0 77.62147840830198,8.168241818705042,0 77.62153300704267,8.165694874818655,0 77.62165959561389,8.163150475114378,0 77.62185807149285,8.160610637670857,0 77.62212827549956,8.158077378768041,0 77.6224699908974,8.155552710189454,0 77.62288294699044,8.153038635624569,0 77.6233668137275,8.150537149769718,0 77.62392120529944,8.148050239227189,0 77.62454568193772,8.145579877109697,0 77.62523974451864,8.143128023939198,0 77.6260028426571,8.140696625848648,0 77.62683436841144,8.138287612783131,0 77.6277336616792,8.135902896701396,0 77.62870000660007,8.133544369776871,0 77.62973263515306,8.131213904398237,0 77.63083072715636,8.128913349571462,0 77.63199341026774,8.12664453181975,0 77.633219759984,8.124409249787107,0 77.63450880323876,8.122209278735284,0 77.63585951480485,8.120046365147687,0 77.63727082269037,8.117922223132155,0 77.63874160544077,8.11583854071614,0 77.64027069573609,8.113796969054931,0 77.64185687859214,8.111799129626206,0 77.64349889585742,8.109846607934685,0 77.64519544261566,8.107940952612921,0 77.64694517168238,8.10608367542136,0 77.6487466954037,8.104276250348732,0 77.65059858295831,8.10252011181376,0 77.65249936395452,8.100816652866285,0 77.65444753112871,8.09916722518733,0 77.65644153584827,8.09757313729051,0 77.65847979710503,8.09603565452187,0 77.66056069791796,8.094555996362203,0 77.66268258533313,8.093135336426656,0 77.66484377581963,8.091774802465238,0 77.66704255526975,8.090475472764922,0 77.66927717809932,8.089238379747485,0 77.67154587084531,8.088064503673934,0 77.67384683486358,8.086954777141273,0 77.67617824273179,8.085910078787151,0 77.67853824544375,8.084931238685783,0 77.68092497061099,8.084019032952085,0 77.68333652426122,8.083174185540258,0 77.68577099353661,8.082397366445377,0 77.68822644759251,8.081689191702878,0 77.69070093669893,8.081050224288447,0 77.69319249853504,8.080480969621078,0 77.69569915729033,8.079981879160471,0 77.69821892366446,8.079553350406854,0 77.70074979846447,8.079195722404734,0 77.70328977350431,8.078909279339825,0 77.70583683610118,8.078694247841327,0 77.70838896278048,8.078550798780384,0 77.71094413096694,8.078479045471624,0 77.71350031358867,8.078479045471624,0 77.71605548177513,8.078550798780384,0 77.71860760845442,8.078694247841327,0 77.72115467015198,8.078909279339825,0 77.72369464609108,8.079195722404734,0 77.72622552089115,8.079553350406854,0 77.72874528726527,8.079981879160471,0 77.73125194602056,8.080480969621078,0 77.73374350785667,8.081050224288447,0 77.73621799696303,8.081689191702878,0 77.738673451019,8.082397366445377,0 77.74110792029433,8.083174185540258,0 77.74351947394462,8.084019032952085,0 77.74590619911186,8.084931238685783,0 77.74826620182381,8.085910078787151,0 77.75059760969197,8.086954777141273,0 77.75289857371024,8.088064503673934,0 77.75516726645623,8.089238379747485,0 77.7574018892858,8.090475472764922,0 77.75960066873591,8.091774802465238,0 77.76176185922247,8.093135336426656,0 77.76388374663765,8.094555996362203,0 77.76596464655125,8.09603565452187,0 77.76800290870733,8.09757313729051,0 77.76999691342689,8.09916722518733,0 77.77194507970171,8.100816652866285,0 77.77384586159729,8.10252011181376,0 77.77569774915185,8.104276250348732,0 77.77749927197385,8.10608367542136,0 77.77924900193995,8.107940952612921,0 77.78094554869818,8.109846607934685,0 77.78258756506415,8.111799129626206,0 77.78417374881951,8.113796969054931,0 77.78570283911478,8.11583854071614,0 77.78717362186524,8.117922223132155,0 77.78858492975075,8.120046365147687,0 77.78993564131684,8.122209278735284,0 77.79122468367228,8.124409249787107,0 77.79245103428786,8.12664453181975,0 77.79361371739918,8.128913349571462,0 77.79471180940254,8.131213904398237,0 77.79574443795548,8.133544369776871,0 77.7967107828764,8.135902896701396,0 77.79761007614417,8.138287612783131,0 77.79844160189845,8.140696625848648,0 77.79920470003691,8.143128023939198,0 77.79989876261783,8.145579877109697,0 77.80052323835685,8.148050239227189,0 77.80107763082805,8.150537149769718,0 77.8015614975651,8.153038635624569,0 77.80197445275883,8.155552710189454,0 77.80231616905604,8.158077378768041,0 77.80258637306275,8.160610637670857,0 77.80278484894166,8.163150475114378,0 77.80291143751288,8.165694874818655,0 77.80296603625362,8.168241818705042,0 77.80294860199643,8.170789283298859,0 77.80285914733184,8.173335246924182,0 77.80269774060832,8.175877688804349,0 77.80246450863024,8.178414590860712,0 77.80215963575864,8.180943938611904,0 77.80178336301185,8.183463723871796,0 77.80133598716611,8.185971947447456,0 77.80081786255437,8.188466616441247,0 77.80022939836812,8.190945750546007,0 77.79957106135544,8.193407382045109,0 77.79884337222393,8.195849556711721,0 77.79804690833822,8.19827033560756,0 77.7971823001231,8.200667795982042,0 77.79625023286201,8.203040033970467,0 77.79525144579765,8.205385166392375,0 77.79418673033342,8.207701332550528,0 77.79305693183198,8.209986691532663,0 77.79186294511885,8.212239428506848,0 77.79060571718014,8.21445775562097,0 77.78928624716264,8.216639912002393,0 77.78790557917921,8.218784162858867,0 77.78646481040272,8.220888807572464,0 77.78496508387155,8.22295217250479,0 77.78340758848947,8.224972621789107,0 77.78179356172353,8.226948548336907,0 77.7801242842084,8.228878383730489,0 77.77840108064544,8.230760596424432,0 77.77662531800411,8.232593690846215,0 77.7747984073207,8.234376210993389,0 77.77292179740306,8.236106742232437,0 77.77099697932721,8.237783908600534,0 77.76902548014186,8.239406379101183,0 77.76700886556677,8.240972864106425,0 77.76494873729445,8.242482120753323,0 77.76284673029244,8.243932950245494,0 77.76070451460174,8.245324198752826,0 77.75852378994102,8.246654762807111,0 77.75630628930389,8.247923584805619,0 77.75405377266355,8.249129657507751,0 77.75176802967087,8.250272023135381,0 77.74945087515783,8.251349773373363,0 77.74710415003653,8.252362052067099,0 77.74472971680302,8.253308056121966,0 77.74232946223498,8.254187033704682,0 77.739905292895,8.254998286941429,0 77.7374591342317,8.255741170118938,0 77.73499292878068,8.256415095080627,0 77.73250863526539,8.257019525830515,0 77.73000822769762,8.257553981231297,0 77.72749369178052,8.2580180377023,0 77.72496702490832,8.258411326521525,0 77.72243023436789,8.258733534724911,0 77.71988533553986,8.258984407804235,0 77.71733434830156,8.259163744311422,0 77.71477930062429,8.259271403952198,0 77.71222222227777,8.25930729949232,0 
								</coordinates>
							</LinearRing>
						</outerBoundaryIs>
					</Polygon>
				</MultiGeometry>
			</Placemark>
		</Folder>
	</Document>
	<Document id="Nagapattinam_10km" xsi:schemaLocation="http://www.opengis.net/kml/2.2 http://schemas.opengis.net/kml/2.2.0/ogckml22.xsd http://www.google.com/kml/ext/2.2 http://code.google.com/apis/kml/schema/kml22gx.xsd">
		<name>Nagapattinam_10km</name>
		<Snippet maxLines="0"></Snippet>
		<Style id="PolyStyle000">
			<LabelStyle>
				<color>00000000</color>
				<scale>0</scale>
			</LabelStyle>
			<LineStyle>
				<color>ff000000</color>
				<width>2</width>
			</LineStyle>
			<PolyStyle>
				<color>00f0f0f0</color>
			</PolyStyle>
		</Style>
		<Folder id="FeatureLayer0">
			<name>Nagapattinam_10km</name>
			<Snippet maxLines="0"></Snippet>
			<Placemark id="ID_00000">
				<name>Nagapattinam</name>
				<Snippet maxLines="0"></Snippet>
				<description><![CDATA[<html xmlns:fo="http://www.w3.org/1999/XSL/Format" xmlns:msxsl="urn:schemas-microsoft-com:xslt">

<head>

<META http-equiv="Content-Type" content="text/html">

<meta http-equiv="content-type" content="text/html; charset=UTF-8">

</head>

<body style="margin:0px 0px 0px 0px;overflow:auto;background:#FFFFFF;">

<table style="font-family:Arial,Verdana,Times;font-size:12px;text-align:left;width:100%;border-collapse:collapse;padding:3px 3px 3px 3px">

<tr style="text-align:center;font-weight:bold;background:#9CBCE2">

<td>Nagapattinam</td>

</tr>

<tr>

<td>

<table style="font-family:Arial,Verdana,Times;font-size:12px;text-align:left;width:100%;border-spacing:0px; padding:3px 3px 3px 3px">

<tr>

<td>NAME</td>

<td>Nagapattinam</td>

</tr>

<tr bgcolor="#D4E4F3">

<td>LAYER</td>

<td>Unknown Point Feature</td>

</tr>

<tr>

<td>BUFF_DIST</td>

<td>10</td>

</tr>

<tr bgcolor="#D4E4F3">

<td>ORIG_FID</td>

<td>0</td>

</tr>

</table>

</td>

</tr>

</table>

</body>

</html>]]></description>
				<styleUrl>#PolyStyle000</styleUrl>
				<MultiGeometry>
					<Polygon>
						<outerBoundaryIs>
							<LinearRing>
								<coordinates>
									79.82166666708309,10.36568557952592,0 79.81909422561807,10.36564968578443,0 79.81652382831209,10.3655420324389,0 79.81395751662615,10.36536270582428,0 79.81139733022269,10.36511184803339,0 79.8088453024688,10.36478965871584,0 79.80630346133574,10.36439639327898,0 79.80377382670082,10.36393236468695,0 79.80125840675015,10.36339794076241,0 79.79875920157593,10.36279354778407,0 79.79627819508272,10.36211966329188,0 79.79381735948363,10.36137682508047,0 79.79137864900548,10.36056562220574,0 79.78896400168736,10.35968669948164,0 79.78657533398456,10.35874075478205,0 79.78421454526512,10.35772853994024,0 79.78188351061556,10.35665085895005,0 79.7795840799414,10.35550856796607,0 79.77731808066494,10.35430257530368,0 79.77508731322899,10.35303383694208,0 79.7728935483986,10.35170336281999,0 79.77073852816062,10.35031220784219,0 79.76862396392482,10.34886147907406,0 79.76655153652428,10.34735232854717,0 79.76452288902016,10.34578595415849,0 79.76253963479638,10.34416360056974,0 79.76060334676708,10.34248655650941,0 79.75871556277303,10.34075615477275,0 79.75687778198409,10.33897376862456,0 79.75509146220128,10.33714081449705,0 79.75335802165546,10.33525874839256,0 79.7516788372086,10.33332906408509,0 79.75005524075681,10.33135329581802,0 79.74848852012917,10.32933301200893,0 79.74697991998738,10.32726981704849,0 79.74553063732913,10.32516535040065,0 79.7441418205886,10.32302128210654,0 79.74281457233468,10.32083931548209,0 79.74154994477419,10.31862118352086,0 79.74034894155045,10.31636864799475,0 79.73921251504561,10.31408349765536,0 79.73814156638025,10.31176754733451,0 79.73713694451442,10.30942263434713,0 79.73619944444886,10.3070506229879,0 79.73532981082218,10.30465339643712,0 79.73452873161574,10.30223285676095,0 79.73379684175092,10.29979092670993,0 79.73313472039109,10.29732954612172,0 79.73254289184104,10.29485066742438,0 79.73202182464757,10.29235626103269,0 79.73157193070011,10.289848305455,0 79.73119356523091,10.28732879268966,0 79.73088702681491,10.28479972282901,0 79.73065255736969,10.28226310405904,0 79.73049034125631,10.27972094906261,0 79.73040050527914,10.27717527771694,0 79.73038311958538,10.27462810900011,0 79.7304381958661,10.27208146638662,0 79.7305656891553,10.26953737065315,0 79.73076549513155,10.2669978416771,0 79.73103745551424,10.26446489393976,0 79.73138135086873,10.26194054012387,0 79.73179690690176,10.25942678212033,0 79.73228379266294,10.2569256164241,0 79.73284162054443,10.25443902693957,0 79.73346994448241,10.25196898857803,0 79.73416826625254,10.24951746006281,0 79.73493602827511,10.24708638842611,0 79.73577261991056,10.24467770271389,0 79.73667737655973,10.24229331308595,0 79.73764957876512,10.23993511351472,0 79.73868845221034,10.23760497548926,0 79.73979317221716,10.23530474621714,0 79.74096286014793,10.23303625312065,0 79.74219658700292,10.23080129484396,0 79.74349337252119,10.22860164485007,0 79.74485218518026,10.22643904962251,0 79.74627194759239,10.22431522416832,0 79.74775153020903,10.22223185471637,0 79.74928975941492,10.22019059242194,0 79.75088541303143,10.21819305876272,0 79.75253722301449,10.21624083744473,0 79.75424387995116,10.21433547710063,0 79.75600402676446,10.2124784912894,0 79.75781626770663,10.21067135130187,0 79.75967916296304,10.20891549155675,0 79.7615912340483,10.20721230510384,0 79.7635509647053,10.20556314272488,0 79.76555679730842,10.20396931383283,0 79.76760714185616,10.20243208107576,0 79.76970037057572,10.20095266573298,0 79.77183482241918,10.19953223962119,0 79.77400880306385,10.1981719313896,0 79.77622058850943,10.1968728184259,0 79.77846842327915,10.19563593315183,0 79.78075052311823,10.19446225492919,0 79.78306507948986,10.19335271545549,0 79.78541025417996,10.19230819426781,0 79.78778418828972,10.19132952054099,0 79.7901849968402,10.19041747128932,0 79.7926107768659,10.18957276866837,0 79.79505960381772,10.18879608357247,0 79.79752953426066,10.1880880311378,0 79.80001860947129,10.18744917344066,0 79.80252485543781,10.18688001769868,0 79.80504628375905,10.18638101447226,0 79.80758089524215,10.18595256036241,0 79.81012667810376,10.18559499441352,0 79.81268161426516,10.18530860081131,0 79.8152436766544,10.18509360708436,0 79.81781083370305,10.1849501823051,0 79.820381049346,10.1848784424862,0 79.82295228392081,10.1848784424862,0 79.82552249956376,10.1849501823051,0 79.82808965661241,10.18509360708436,0 79.83065171900171,10.18530860081131,0 79.83320665516305,10.18559499441352,0 79.83575243802466,10.18595256036241,0 79.83828704950781,10.18638101447226,0 79.84080847782906,10.18688001769868,0 79.84331472379552,10.18744917344066,0 79.84580379900615,10.1880880311378,0 79.84827372944909,10.18879608357247,0 79.85072255640091,10.18957276866837,0 79.85314833642661,10.19041747128932,0 79.85554914497709,10.19132952054099,0 79.8579230790869,10.19230819426781,0 79.86026825377695,10.19335271545549,0 79.86258281014864,10.19446225492919,0 79.86486491088698,10.19563593315183,0 79.86711274475743,10.1968728184259,0 79.86932453020296,10.1981719313896,0 79.87149851084763,10.19953223962119,0 79.87363296269115,10.20095266573298,0 79.87572619141065,10.20243208107576,0 79.87777653595845,10.20396931383283,0 79.87978236856151,10.20556314272488,0 79.88174209921857,10.20721230510384,0 79.88365417030377,10.20891549155675,0 79.8855170664595,10.21067135130187,0 79.88732930650235,10.2124784912894,0 79.88908945331565,10.21433547710063,0 79.89079611025232,10.21624083744473,0 79.89244792023538,10.21819305876272,0 79.89404357385189,10.22019059242194,0 79.89558180305784,10.22223185471637,0 79.89706138567448,10.22431522416832,0 79.89848114808655,10.22643904962251,0 79.89983996074562,10.22860164485007,0 79.90113674626389,10.23080129484396,0 79.90237047311888,10.23303625312065,0 79.90354016104965,10.23530474621714,0 79.90464488105647,10.23760497548926,0 79.90568375450175,10.23993511351472,0 79.90665595670708,10.24229331308595,0 79.9075607133563,10.24467770271389,0 79.90839730499169,10.24708638842611,0 79.90916506701427,10.24951746006281,0 79.9098633887844,10.25196898857803,0 79.91049171272243,10.25443902693957,0 79.91104954060387,10.2569256164241,0 79.91153642636505,10.25942678212033,0 79.91195198239814,10.26194054012387,0 79.91229587775263,10.26446489393976,0 79.91256783813526,10.2669978416771,0 79.91276764411157,10.26953737065315,0 79.91289513740071,10.27208146638662,0 79.91295021368148,10.27462810900011,0 79.91293282798767,10.27717527771694,0 79.91284299201055,10.27972094906261,0 79.91268077589717,10.28226310405904,0 79.91244630645195,10.28479972282901,0 79.9121397680359,10.28732879268966,0 79.91176140256675,10.289848305455,0 79.91131150861929,10.29235626103269,0 79.91079044142577,10.29485066742438,0 79.91019861287572,10.29732954612172,0 79.90953649151595,10.29979092670993,0 79.90880460165113,10.30223285676095,0 79.90800352244469,10.30465339643712,0 79.90713388881795,10.3070506229879,0 79.90619638965171,10.30942263434713,0 79.90519176688662,10.31176754733451,0 79.90412081822126,10.31408349765536,0 79.90298439171636,10.31636864799475,0 79.90178338849262,10.31862118352086,0 79.90051876093213,10.32083931548209,0 79.89919151267821,10.32302128210654,0 79.89780269593774,10.32516535040065,0 79.89635341327948,10.32726981704849,0 79.89484481313769,10.32933301200893,0 79.89327809251,10.33135329581802,0 79.89165449605821,10.33332906408509,0 79.88997531161141,10.33525874839256,0 79.88824187106553,10.33714081449705,0 79.88645555218204,10.33897376862456,0 79.88461777049378,10.34075615477275,0 79.88272998649973,10.34248655650941,0 79.88079369847048,10.34416360056974,0 79.87881044424665,10.34578595415849,0 79.87678179674259,10.34735232854717,0 79.87470936934199,10.34886147907406,0 79.87259480510625,10.35031220784219,0 79.87043978576753,10.35170336281999,0 79.86824602003787,10.35303383694208,0 79.86601525260187,10.35430257530368,0 79.86374925332547,10.35550856796607,0 79.86144982265125,10.35665085895005,0 79.85911878800169,10.35772853994024,0 79.85675799928231,10.35874075478205,0 79.85436933157945,10.35968669948164,0 79.85195468426133,10.36056562220574,0 79.84951597378324,10.36137682508047,0 79.84705513818415,10.36211966329188,0 79.8445741325902,10.36279354778407,0 79.84207492651672,10.36339794076241,0 79.83955950746537,10.36393236468695,0 79.83702987193112,10.36439639327898,0 79.83448803079801,10.36478965871584,0 79.83193600304418,10.36511184803339,0 79.82937581664066,10.36536270582428,0 79.82680950495472,10.3655420324389,0 79.82423910764874,10.36564968578443,0 79.82166666708309,10.36568557952592,0 
								</coordinates>
							</LinearRing>
						</outerBoundaryIs>
					</Polygon>
				</MultiGeometry>
			</Placemark>
		</Folder>
	</Document>
	<Document id="Sulurairfield_20km" xsi:schemaLocation="http://www.opengis.net/kml/2.2 http://schemas.opengis.net/kml/2.2.0/ogckml22.xsd http://www.google.com/kml/ext/2.2 http://code.google.com/apis/kml/schema/kml22gx.xsd">
		<name>Sulurairfield_20km</name>
		<Snippet maxLines="0"></Snippet>
		<Style id="PolyStyle001">
			<LabelStyle>
				<color>00000000</color>
				<scale>0</scale>
			</LabelStyle>
			<LineStyle>
				<color>ff000000</color>
				<width>2</width>
			</LineStyle>
			<PolyStyle>
				<color>00f0f0f0</color>
			</PolyStyle>
		</Style>
		<Folder id="FeatureLayer0">
			<name>Sulurairfield_20km</name>
			<Snippet maxLines="0"></Snippet>
			<Placemark id="ID_00000">
				<name>Sulur airfield</name>
				<Snippet maxLines="0"></Snippet>
				<description><![CDATA[<html xmlns:fo="http://www.w3.org/1999/XSL/Format" xmlns:msxsl="urn:schemas-microsoft-com:xslt">

<head>

<META http-equiv="Content-Type" content="text/html">

<meta http-equiv="content-type" content="text/html; charset=UTF-8">

</head>

<body style="margin:0px 0px 0px 0px;overflow:auto;background:#FFFFFF;">

<table style="font-family:Arial,Verdana,Times;font-size:12px;text-align:left;width:100%;border-collapse:collapse;padding:3px 3px 3px 3px">

<tr style="text-align:center;font-weight:bold;background:#9CBCE2">

<td>Sulur airfield</td>

</tr>

<tr>

<td>

<table style="font-family:Arial,Verdana,Times;font-size:12px;text-align:left;width:100%;border-spacing:0px; padding:3px 3px 3px 3px">

<tr>

<td>NAME</td>

<td>Sulur airfield</td>

</tr>

<tr bgcolor="#D4E4F3">

<td>LAYER</td>

<td>Unknown Point Feature</td>

</tr>

<tr>

<td>BUFF_DIST</td>

<td>20</td>

</tr>

<tr bgcolor="#D4E4F3">

<td>ORIG_FID</td>

<td>0</td>

</tr>

</table>

</td>

</tr>

</table>

</body>

</html>]]></description>
				<styleUrl>#PolyStyle001</styleUrl>
				<MultiGeometry>
					<Polygon>
						<outerBoundaryIs>
							<LinearRing>
								<coordinates>
									77.16249999967528,11.19386209306117,0 77.15434241397128,11.19368249664996,0 77.14620105383563,11.19314406534636,0 77.13809211336041,11.19224786844444,0 77.1300317218865,11.19099569019897,0 77.12203591072875,11.18939001993351,0 77.11412058169952,11.18743405203992,0 77.106301476532,11.18513167698535,0 77.09859414540352,11.18248747321837,0 77.09101391276192,11.1795066999743,0 77.08357585124458,11.1761952846847,0 77.07629474660536,11.17255981398427,0 77.06918507433176,11.16860751572432,0 77.0622609636726,11.16434625087885,0 77.05553617605375,11.15978449286013,0 77.04902407270288,11.15493131043166,0 77.04273759126687,11.14979635511776,0 77.03668921793314,11.14438983512287,0 77.03089096404682,11.13872249914408,0 77.02535434182948,11.13280561298871,0 77.02009034189581,11.1266509397891,0 77.01510940807276,11.12027071212373,0 77.01042142390963,11.1136776122321,0 77.00603568479909,11.10688474233706,0 77.00196088718525,11.09990560396051,0 76.99820510428219,11.09275406464843,0 76.99477577708052,11.08544433458843,0 76.99167969276368,11.07799093873086,0 76.9889229784128,11.07040868351396,0 76.98651108391942,11.06271263348128,0 76.98444877299255,11.05491807530899,0 76.98274011416498,11.04704049172534,0 76.9813884726999,11.03909552913541,0 76.98039650339598,11.03109896524512,0 76.97976614788945,11.02306667938382,0 76.97949862745975,11.01501462282664,0 76.97959444392848,11.006958781023,0 76.98005337696185,10.99891514931471,0 76.98087448676819,10.99089969426552,0 76.98205611499776,10.98292832758028,0 76.98359588564165,10.97501687193113,0 76.98549071492459,10.96718102858165,0 76.98773681490212,10.95943634770936,0 76.99032970155451,10.95179819962726,0 76.99326420288071,10.94428173881124,0 76.9965344714887,10.93690187961812,0 77.00013399538761,10.92967326301073,0 77.00405560877937,10.9226102304778,0 77.00829151184388,10.91572679165813,0 77.01283328063147,10.90903660095842,0 77.01767188594886,10.90255292787538,0 77.02279771404335,10.89628863091565,0 77.02820058189138,10.89025613331393,0 77.03386975878237,10.8844673987515,0 77.03979398970091,10.87893390617489,0 77.0459615124139,10.87366662641375,0 77.05236008804769,10.86867600329498,0 77.05897701907423,10.86397193205909,0 77.06579917808966,10.85956373957498,0 77.07281303299516,10.85546016275634,0 77.08000467037931,10.85166933776975,0 77.08735983059177,10.84819877935024,0 77.09486392752831,10.84505536731138,0 77.1025020846036,10.84224533125706,0 77.11025915813372,10.83977424158803,0 77.11811977061097,10.8376469960121,0 77.1260683421803,10.83586781145039,0 77.13408911671939,10.83444021414459,0 77.14216619781183,10.8333670324626,0 77.15028357662584,10.83265039420036,0 77.15842516698791,10.8322917193874,0 77.16657483326202,10.8322917193874,0 77.17471642272477,10.83265039420036,0 77.1828338024381,10.8333670324626,0 77.19091088353053,10.83444021414459,0 77.19893165806963,10.83586781145039,0 77.20688022873964,10.8376469960121,0 77.21474084211621,10.83977424158803,0 77.22249791564633,10.84224533125706,0 77.2301360718223,10.84505536731138,0 77.23764016965816,10.84819877935024,0 77.24499532987062,10.85166933776975,0 77.25218696725477,10.85546016275634,0 77.25920082126095,10.85956373957498,0 77.26602298027638,10.86397193205909,0 77.27263991220224,10.86867600329498,0 77.27903848783598,10.87366662641375,0 77.28520601054902,10.87893390617489,0 77.29113024056818,10.8844673987515,0 77.29679941835855,10.89025613331393,0 77.30220228620658,10.89628863091565,0 77.30732811430107,10.90255292787538,0 77.31216671961846,10.90903660095842,0 77.31670848840605,10.91572679165813,0 77.32094439057124,10.9226102304778,0 77.32486600486232,10.92967326301073,0 77.32846552786185,10.93690187961812,0 77.3317357964699,10.94428173881124,0 77.33467029869536,10.95179819962726,0 77.33726318534781,10.95943634770936,0 77.33950928532533,10.96718102858165,0 77.34140411460828,10.97501687193113,0 77.34294388525217,10.98292832758028,0 77.34412551258242,10.99089969426552,0 77.34494662328808,10.99891514931471,0 77.3454055563214,11.006958781023,0 77.34550137279018,11.01501462282664,0 77.34523385236048,11.02306667938382,0 77.34460349685395,11.03109896524512,0 77.34361152755002,11.03909552913541,0 77.34225988518563,11.04704049172534,0 77.34055122635806,11.05491807530899,0 77.33848891543118,11.06271263348128,0 77.33607702093781,11.07040868351396,0 77.33332030748625,11.07799093873086,0 77.33022422316941,11.08544433458843,0 77.32679489596774,11.09275406464843,0 77.32303911306468,11.09990560396051,0 77.31896431455152,11.10688474233706,0 77.3145785763403,11.1136776122321,0 77.30989059217717,11.12027071212373,0 77.30490965835412,11.1266509397891,0 77.29964565752113,11.13280561298871,0 77.29410903620311,11.13872249914408,0 77.28831078231678,11.14438983512287,0 77.28226240898306,11.14979635511776,0 77.27597592754705,11.15493131043166,0 77.26946382419618,11.15978449286013,0 77.26273903657733,11.16434625087885,0 77.25581492591817,11.16860751572432,0 77.24870525364457,11.17255981398427,0 77.24142414900535,11.1761952846847,0 77.23398608748801,11.1795066999743,0 77.2264058548464,11.18248747321837,0 77.21869852371793,11.18513167698535,0 77.21087941855041,11.18743405203992,0 77.20296408952117,11.18939001993351,0 77.19496827836343,11.19099569019897,0 77.18690788599019,11.19224786844444,0 77.1787989464143,11.19314406534636,0 77.17065758627865,11.19368249664996,0 77.16249999967528,11.19386209306117,0 
								</coordinates>
							</LinearRing>
						</outerBoundaryIs>
					</Polygon>
				</MultiGeometry>
			</Placemark>
		</Folder>
	</Document>
	<Document id="sulur_56km_new" xsi:schemaLocation="http://www.opengis.net/kml/2.2 http://schemas.opengis.net/kml/2.2.0/ogckml22.xsd http://www.google.com/kml/ext/2.2 http://code.google.com/apis/kml/schema/kml22gx.xsd">
		<name>sulur_56km_new</name>
		<Snippet maxLines="0"></Snippet>
		<Style id="PolyStyle002">
			<LabelStyle>
				<color>00000000</color>
				<scale>0</scale>
			</LabelStyle>
			<LineStyle>
				<color>ffc5ff00</color>
				<width>2</width>
			</LineStyle>
			<PolyStyle>
				<color>ffc0ff02</color>
				<fill>0</fill>
			</PolyStyle>
		</Style>
		<StyleMap id="PolyStyle003">
			<Pair>
				<key>normal</key>
				<styleUrl>#PolyStyle004</styleUrl>
			</Pair>
			<Pair>
				<key>highlight</key>
				<styleUrl>#PolyStyle002</styleUrl>
			</Pair>
		</StyleMap>
		<Style id="PolyStyle004">
			<LabelStyle>
				<color>00000000</color>
				<scale>0</scale>
			</LabelStyle>
			<LineStyle>
				<color>ffc5ff00</color>
				<width>2</width>
			</LineStyle>
			<PolyStyle>
				<color>ffc0ff02</color>
				<fill>0</fill>
			</PolyStyle>
		</Style>
		<Folder id="FeatureLayer0">
			<name>sulur_56km_new</name>
			<Snippet maxLines="0"></Snippet>
			<Placemark id="ID_00000">
				<name>Sulur airfield</name>
				<Snippet maxLines="0"></Snippet>
				<description><![CDATA[<html xmlns:fo="http://www.w3.org/1999/XSL/Format" xmlns:msxsl="urn:schemas-microsoft-com:xslt">

<head>

<META http-equiv="Content-Type" content="text/html">

<meta http-equiv="content-type" content="text/html; charset=UTF-8">

</head>

<body style="margin:0px 0px 0px 0px;overflow:auto;background:#FFFFFF;">

<table style="font-family:Arial,Verdana,Times;font-size:12px;text-align:left;width:100%;border-collapse:collapse;padding:3px 3px 3px 3px">

<tr style="text-align:center;font-weight:bold;background:#9CBCE2">

<td>Sulur airfield</td>

</tr>

<tr>

<td>

<table style="font-family:Arial,Verdana,Times;font-size:12px;text-align:left;width:100%;border-spacing:0px; padding:3px 3px 3px 3px">

<tr>

<td>FID</td>

<td>0</td>

</tr>

<tr bgcolor="#D4E4F3">

<td>NAME</td>

<td>Sulur airfield</td>

</tr>

<tr>

<td>LAYER</td>

<td>Unknown Point Feature</td>

</tr>

<tr bgcolor="#D4E4F3">

<td>BUFF_DIST</td>

<td>56</td>

</tr>

<tr>

<td>ORIG_FID</td>

<td>0</td>

</tr>

</table>

</td>

</tr>

</table>

</body>

</html>]]></description>
				<styleUrl>#PolyStyle003</styleUrl>
				<MultiGeometry>
					<Polygon>
						<outerBoundaryIs>
							<LinearRing>
								<coordinates>
									77.16250000000002,11.51930833832709,0 77.14883509540432,11.51912861939877,0 77.13517992745111,11.51858959066695,0 77.1215442257303,11.51769163619473,0 77.10793770573197,11.51643539577874,0 77.09437006181031,11.51482176448514,0 77.0808509601636,11.51285189200127,0 77.06739003183635,11.51052718180276,0 77.05399686574846,11.50784929013691,0 77.04068100175699,11.50482012482313,0 77.0274519237561,11.50144184387137,0 77.01431905282,11.49771685391949,0 77.00129174039471,11.49364780849099,0 76.98837926154341,11.48923760607426,0 76.975590808251,11.484489388025,0 76.96293548279236,11.4794065362933,0 76.95042229117011,11.47399267097719,0 76.93806013662628,11.46825164770459,0 76.92585781323302,11.46218755484565,0 76.91382399956723,11.45580471055757,0 76.90196725247372,11.44910765966429,0 76.89029600092171,11.44210117037332,0 76.87881853995924,11.43479023083242,0 76.86754302476974,11.42718004552849,0 76.85647746483561,11.41927603153171,0 76.84562971821255,11.41108381458765,0 76.83500748591939,11.40260922506031,0 76.82461830644694,11.39385829372929,0 76.8144695503903,11.38483724744417,0 76.80456841520824,11.37555250463952,0 76.79492192011341,11.36601067071379,0 76.78553690109703,11.35621853327573,0 76.77642000609163,11.3461830572618,0 76.76757769027503,11.3359113799283,0 76.75901621151917,11.32541080572202,0 76.75074162598629,11.31468880103318,0 76.74275978387627,11.30375298883463,0 76.73507632532728,11.29261114321131,0 76.7276966764729,11.28127118378404,0 76.72062604565815,11.26974117003183,0 76.71386941981686,11.25802929551677,0 76.70743156101288,11.24614388201598,0 76.70131700314721,11.23409337356484,0 76.69553004883306,11.22188633041584,0 76.69007476644089,11.20953142291763,0 76.68495498731514,11.19703742531858,0 76.68017430316431,11.18441320949961,0 76.67573606362593,11.17166773864056,0 76.67164337400786,11.15881006082507,0 76.66789909320681,11.14584930258825,0 76.66450583180585,11.1327946624121,0 76.66146595035109,11.11965540417323,0 76.65878155780909,11.10644085054764,0 76.65645451020509,11.09316037637732,0 76.65448640944307,11.07982340200342,0 76.65287860230779,11.0664393865707,0 76.65163217964931,11.05301782130822,0 76.65074797574999,11.03956822279081,0 76.65022656787413,11.02610012618632,0 76.65006827599997,11.01262307849336,0 76.65027316273432,10.99914663177426,0 76.65084103340867,10.98568033638815,0 76.65177143635712,10.97223373422882,0 76.65306366337508,10.9588163519722,0 76.65471675035809,10.9454376943381,0 76.65672947812008,10.93210723737106,0 76.65910037338992,10.91883442174483,0 76.66182770998533,10.90562864609539,0 76.66490951016301,10.89249926038685,0 76.6683435461434,10.87945555931515,0 76.67212734180912,10.86650677575385,0 76.67625817457517,10.8536620742468,0 76.68073307742947,10.84093054455195,0 76.68554884114199,10.82832119524097,0 76.69070201664053,10.81584294735887,0 76.69618891755137,10.80350462814823,0 76.70200562290263,10.79131496484207,0 76.70814797998827,10.77928257852981,0 76.71461160739041,10.76741597810049,0 76.72139189815776,10.75572355426725,0 76.7284840231377,10.74421357367737,0 76.7358829344593,10.73289417311164,0 76.74358336916522,10.7217733537772,0 76.75157985298898,10.71085897569762,0 76.75986670427568,10.70015875220405,0 76.76843803804263,10.6896802445312,0 76.77728777017744,10.67943085652176,0 76.78640962177023,10.66941782944289,0 76.79579712357705,10.65964823691818,0 76.80544362061127,10.65012897997874,0 76.81534227685967,10.64086678223639,0 76.82548608012006,10.63186818518253,0 76.83586784695679,10.62313954361565,0 76.84648022777102,10.61468702120075,0 76.85731571198204,10.60651658616332,0 76.86836663331597,10.59863400712117,0 76.87962517519854,10.59104484905658,0 76.89108337624799,10.58375446943173,0 76.90273313586431,10.57676801444973,0 76.91456621991124,10.57009041546401,0 76.92657426648702,10.56372638553836,0 76.93874879178007,10.55768041615987,0 76.95108119600548,10.55195677410707,0 76.96356276941853,10.54655949847529,0 76.97618469840114,10.54149239786127,0 76.98893807161707,10.53675904770883,0 77.00181388623186,10.53236278781749,0 77.01480305419337,10.52830672001557,0 77.02789640856858,10.52459370599935,0 77.04108470993266,10.52122636533992,0 77.05435865280597,10.51820707365861,0 77.06770887213449,10.51553796097283,0 77.08112594980987,10.51322091021273,0 77.09460042122438,10.51125755591032,0 77.10812278185649,10.50964928306143,0 77.12168349388288,10.50839722616157,0 77.13527299281245,10.50750226841611,0 77.1488816941378,10.50696504112554,0 77.16250000000002,10.50678592324565,0 77.17611830586225,10.50696504112554,0 77.18972700718759,10.50750226841611,0 77.20331650611715,10.50839722616157,0 77.21687721814354,10.50964928306143,0 77.23039957877565,10.51125755591031,0 77.24387405019016,10.51322091021273,0 77.25729112786556,10.51553796097283,0 77.27064134719407,10.51820707365861,0 77.28391529006737,10.52122636533992,0 77.29710359143147,10.52459370599935,0 77.31019694580668,10.52830672001557,0 77.32318611376819,10.53236278781749,0 77.33606192838297,10.53675904770883,0 77.3488153015989,10.54149239786127,0 77.36143723058152,10.54655949847529,0 77.37391880399456,10.55195677410707,0 77.38625120821996,10.55768041615987,0 77.39842573351302,10.56372638553837,0 77.41043378008881,10.57009041546401,0 77.42226686413574,10.57676801444973,0 77.43391662375204,10.58375446943173,0 77.44537482480149,10.59104484905658,0 77.45663336668407,10.59863400712117,0 77.46768428801801,10.60651658616332,0 77.47851977222902,10.61468702120075,0 77.48913215304326,10.62313954361566,0 77.49951391987999,10.63186818518253,0 77.50965772314036,10.64086678223639,0 77.51955637938877,10.65012897997875,0 77.529202876423,10.65964823691818,0 77.53859037822981,10.66941782944289,0 77.54771222982261,10.67943085652177,0 77.55656196195741,10.6896802445312,0 77.56513329572437,10.70015875220405,0 77.57342014701106,10.71085897569762,0 77.58141663083482,10.7217733537772,0 77.58911706554073,10.73289417311164,0 77.59651597686235,10.74421357367737,0 77.60360810184227,10.75572355426725,0 77.61038839260964,10.76741597810049,0 77.61685202001178,10.77928257852981,0 77.62299437709741,10.79131496484207,0 77.62881108244868,10.80350462814824,0 77.63429798335952,10.81584294735888,0 77.63945115885805,10.82832119524097,0 77.64426692257057,10.84093054455196,0 77.64874182542488,10.8536620742468,0 77.65287265819093,10.86650677575385,0 77.65665645385664,10.87945555931515,0 77.66009048983703,10.89249926038685,0 77.6631722900147,10.90562864609539,0 77.66589962661011,10.91883442174483,0 77.66827052187996,10.93210723737106,0 77.67028324964195,10.9454376943381,0 77.67193633662497,10.9588163519722,0 77.67322856364292,10.97223373422882,0 77.67415896659138,10.98568033638815,0 77.67472683726571,10.99914663177426,0 77.67493172400006,11.01262307849336,0 77.67477343212592,11.02610012618632,0 77.67425202425005,11.03956822279081,0 77.67336782035073,11.05301782130822,0 77.67212139769225,11.0664393865707,0 77.67051359055696,11.07982340200342,0 77.66854548979495,11.09316037637732,0 77.66621844219095,11.10644085054764,0 77.66353404964894,11.11965540417323,0 77.66049416819419,11.1327946624121,0 77.65710090679322,11.14584930258825,0 77.65335662599219,11.15881006082507,0 77.6492639363741,11.17166773864056,0 77.64482569683574,11.18441320949961,0 77.64004501268491,11.19703742531859,0 77.63492523355914,11.20953142291763,0 77.62946995116698,11.22188633041584,0 77.62368299685284,11.23409337356484,0 77.61756843898716,11.24614388201598,0 77.61113058018319,11.25802929551677,0 77.6043739543419,11.26974117003183,0 77.59730332352711,11.28127118378404,0 77.58992367467275,11.29261114321131,0 77.58224021612378,11.30375298883463,0 77.57425837401375,11.31468880103318,0 77.56598378848088,11.32541080572202,0 77.557422309725,11.3359113799283,0 77.54857999390842,11.3461830572618,0 77.53946309890301,11.35621853327573,0 77.53007807988664,11.36601067071379,0 77.52043158479181,11.37555250463952,0 77.51053044960975,11.38483724744417,0 77.50038169355311,11.39385829372929,0 77.48999251408065,11.40260922506031,0 77.4793702817875,11.41108381458765,0 77.46852253516444,11.41927603153171,0 77.4574569752303,11.42718004552848,0 77.4461814600408,11.43479023083242,0 77.43470399907832,11.44210117037332,0 77.42303274752632,11.44910765966429,0 77.4111760004328,11.45580471055757,0 77.39914218676702,11.46218755484565,0 77.38693986337375,11.46825164770459,0 77.37457770882993,11.47399267097719,0 77.36206451720768,11.4794065362933,0 77.34940919174903,11.484489388025,0 77.33662073845662,11.48923760607426,0 77.32370825960534,11.49364780849099,0 77.31068094718005,11.49771685391949,0 77.29754807624394,11.50144184387137,0 77.28431899824304,11.50482012482313,0 77.27100313425159,11.50784929013691,0 77.25760996816368,11.51052718180276,0 77.24414903983644,11.51285189200127,0 77.23062993818974,11.51482176448514,0 77.21706229426806,11.51643539577874,0 77.20345577426974,11.51769163619473,0 77.18982007254893,11.51858959066695,0 77.17616490459572,11.51912861939877,0 77.16250000000002,11.51930833832709,0 
								</coordinates>
							</LinearRing>
						</outerBoundaryIs>
					</Polygon>
				</MultiGeometry>
			</Placemark>
		</Folder>
	</Document>
	<Document id="Thanjavurairfield_20km" xsi:schemaLocation="http://www.opengis.net/kml/2.2 http://schemas.opengis.net/kml/2.2.0/ogckml22.xsd http://www.google.com/kml/ext/2.2 http://code.google.com/apis/kml/schema/kml22gx.xsd">
		<name>Thanjavurairfield_20km</name>
		<Snippet maxLines="0"></Snippet>
		<Style id="PolyStyle0030">
			<LabelStyle>
				<color>00000000</color>
				<scale>0</scale>
			</LabelStyle>
			<LineStyle>
				<color>ff000000</color>
				<width>2</width>
			</LineStyle>
			<PolyStyle>
				<color>00f0f0f0</color>
			</PolyStyle>
		</Style>
		<Folder id="FeatureLayer0">
			<name>Thanjavurairfield_20km</name>
			<Snippet maxLines="0"></Snippet>
			<Placemark id="ID_00000">
				<name>Thanjavur airfield</name>
				<Snippet maxLines="0"></Snippet>
				<description><![CDATA[<html xmlns:fo="http://www.w3.org/1999/XSL/Format" xmlns:msxsl="urn:schemas-microsoft-com:xslt">

<head>

<META http-equiv="Content-Type" content="text/html">

<meta http-equiv="content-type" content="text/html; charset=UTF-8">

</head>

<body style="margin:0px 0px 0px 0px;overflow:auto;background:#FFFFFF;">

<table style="font-family:Arial,Verdana,Times;font-size:12px;text-align:left;width:100%;border-collapse:collapse;padding:3px 3px 3px 3px">

<tr style="text-align:center;font-weight:bold;background:#9CBCE2">

<td>Thanjavur airfield</td>

</tr>

<tr>

<td>

<table style="font-family:Arial,Verdana,Times;font-size:12px;text-align:left;width:100%;border-spacing:0px; padding:3px 3px 3px 3px">

<tr>

<td>NAME</td>

<td>Thanjavur airfield</td>

</tr>

<tr bgcolor="#D4E4F3">

<td>LAYER</td>

<td>Unknown Point Feature</td>

</tr>

<tr>

<td>BUFF_DIST</td>

<td>20</td>

</tr>

<tr bgcolor="#D4E4F3">

<td>ORIG_FID</td>

<td>0</td>

</tr>

</table>

</td>

</tr>

</table>

</body>

</html>]]></description>
				<styleUrl>#PolyStyle0030</styleUrl>
				<MultiGeometry>
					<Polygon>
						<outerBoundaryIs>
							<LinearRing>
								<coordinates>
									79.10277777767237,10.90053222947887,0 79.09462828856471,10.9003526330676,0 79.08649500883763,10.89981419996542,0 79.07839411459679,10.89891800036548,0 79.07034171899517,10.89766581852274,0 79.06235383536125,10.89606014376068,0 79.05444635111826,10.89410416957179,0 79.04663499091214,10.89180178642334,0 79.03893528783334,10.88915757276379,0 79.03136255194028,10.88617678782856,0 79.02393183878337,10.88286535994843,0 79.0166579215259,10.87922987216092,0 79.00955525766904,10.87527755591452,0 79.00263796477032,10.87101626858595,0 78.99591978806779,10.86645448448689,0 78.98941407799737,10.86160127417952,0 78.98313375691743,10.85646628559067,0 78.97709130022338,10.85105972782424,0 78.97129870667004,10.84539234957731,0 78.965767477687,10.83947541665719,0 78.96050859129849,10.83332069039761,0 78.9555324850362,10.82694040517561,0 78.95084902985889,10.8203472414321,0 78.94646751396465,10.81355430228928,0 78.94239662480447,10.8065750883697,0 78.93864443019635,10.79942346631998,0 78.93521836123841,10.7921136472271,0 78.93212520241622,10.78466015514209,0 78.92937107451553,10.77707779830178,0 78.92696142203204,10.76938163855181,0 78.9249010050774,10.76158696436698,0 78.92319389038579,10.75370925757625,0 78.9218434396231,10.74576416548388,0 78.92085230758801,10.73776746489665,0 78.92022243231946,10.72973503694243,0 78.91995503779481,10.72168283109784,0 78.92005062493644,10.71362683461075,0 78.92050897610841,10.70558304192389,0 78.92132915241848,10.69756742139941,0 78.92250949641618,10.68959588384303,0 78.92404763838783,10.68168425282607,0 78.92594049815551,10.67384823051145,0 78.92818429137202,10.66610336797612,0 78.93077453941351,10.65846503373439,0 78.93370607657425,10.65094838585935,0 78.93697306175744,10.64356833780857,0 78.94056899016681,10.63633953234358,0 78.94448670319883,10.62927630915442,0 78.94871841002669,10.6223926814771,0 78.95325569479456,10.61570230191973,0 78.9580895382017,10.60921844267705,0 78.96321033548867,10.60295396225558,0 78.96860791352447,10.59692128478952,0 78.97427155328961,10.59113237395997,0 78.98019000966127,10.58559870961278,0 78.98635153299693,10.58033126527573,0 78.99274389611395,10.57534048297697,0 78.99935441227638,10.57063626065497,0 79.00616996757003,10.56622792337998,0 79.01317704158726,10.56212421076378,0 79.02036173620525,10.55833325897277,0 79.02770980346469,10.55486258364135,0 79.03520667075134,10.55171906368389,0 79.04283747586885,10.54890893140214,0 79.05058708862327,10.54643775629745,0 79.0584401458961,10.54431043697713,0 79.0663810822212,10.54253119036218,0 79.07439415586566,10.54110354269437,0 79.08246348480202,10.5400303232409,0 79.09057307458778,10.53931365979759,0 79.09870685433793,10.5389549723941,0 79.10684870190613,10.5389549723941,0 79.11498248075696,10.53931365979759,0 79.12309207144199,10.5400303232409,0 79.13116139947908,10.54110354269437,0 79.13917447312349,10.54253119036218,0 79.14711540944865,10.54431043697713,0 79.15496846672141,10.54643775629745,0 79.16271807947584,10.54890893140214,0 79.17034888459341,10.55171906368389,0 79.17784575277932,10.55486258364135,0 79.1851938191395,10.55833325897277,0 79.19237851375743,10.56212421076378,0 79.19938558777471,10.56622792337998,0 79.20620114306837,10.57063626065497,0 79.21281166013006,10.57534048297697,0 79.21920402234781,10.58033126527573,0 79.22536554568342,10.58559870961278,0 79.23128400205513,10.59113237395997,0 79.23694764182028,10.59692128478952,0 79.2423452207554,10.60295396225558,0 79.24746601804236,10.60921844267705,0 79.2522998614495,10.61570230191973,0 79.25683714531806,10.6223926814771,0 79.26106885214585,10.62927630915442,0 79.2649865660772,10.63633953234358,0 79.26858249358725,10.64356833780857,0 79.27184947877049,10.65094838585935,0 79.27478101593118,10.65846503373439,0 79.27737126397273,10.66610336797612,0 79.27961505718918,10.67384823051145,0 79.28150791695685,10.68168425282607,0 79.28304605892856,10.68959588384303,0 79.28422640382553,10.69756742139941,0 79.28504657923628,10.70558304192389,0 79.28550493040825,10.71362683461075,0 79.28560051754988,10.72168283109784,0 79.28533312302528,10.72973503694243,0 79.28470324865606,10.73776746489665,0 79.28371211572164,10.74576416548388,0 79.28236166495896,10.75370925757625,0 79.28065455026734,10.76158696436698,0 79.27859413331265,10.76938163855181,0 79.27618448082916,10.77707779830178,0 79.27343035292853,10.78466015514209,0 79.27033719410628,10.7921136472271,0 79.26691112604766,10.79942346631998,0 79.26315893054027,10.8065750883697,0 79.25908804138004,10.81355430228928,0 79.2547065254858,10.8203472414321,0 79.25002307030849,10.82694040517561,0 79.2450469640462,10.83332069039761,0 79.23978807765769,10.83947541665719,0 79.2342568486747,10.84539234957731,0 79.22846425512131,10.85105972782424,0 79.22242179842732,10.85646628559067,0 79.21614147734738,10.86160127417952,0 79.20963576727689,10.86645448448689,0 79.20291759057443,10.87101626858595,0 79.19600029767565,10.87527755591452,0 79.18889763381878,10.87922987216092,0 79.18162371656132,10.88286535994843,0 79.17419300340447,10.88617678782856,0 79.16662026751141,10.88915757276379,0 79.15892056443255,10.89180178642334,0 79.15110920422643,10.89410416957179,0 79.14320171998344,10.89606014376068,0 79.13521383724884,10.89766581852274,0 79.12716144074795,10.89891800036548,0 79.11906054650706,10.89981419996542,0 79.11092726677998,10.9003526330676,0 79.10277777767237,10.90053222947887,0 
								</coordinates>
							</LinearRing>
						</outerBoundaryIs>
					</Polygon>
				</MultiGeometry>
			</Placemark>
		</Folder>
	</Document>
	<Document id="tnj_56km_new" xsi:schemaLocation="http://www.opengis.net/kml/2.2 http://schemas.opengis.net/kml/2.2.0/ogckml22.xsd http://www.google.com/kml/ext/2.2 http://code.google.com/apis/kml/schema/kml22gx.xsd">
		<name>tnj_56km_new</name>
		<Snippet maxLines="0"></Snippet>
		<StyleMap id="PolyStyle005">
			<Pair>
				<key>normal</key>
				<styleUrl>#PolyStyle007</styleUrl>
			</Pair>
			<Pair>
				<key>highlight</key>
				<styleUrl>#PolyStyle006</styleUrl>
			</Pair>
		</StyleMap>
		<Style id="PolyStyle006">
			<LabelStyle>
				<color>00000000</color>
				<scale>0</scale>
			</LabelStyle>
			<LineStyle>
				<color>ffc5ff00</color>
				<width>2</width>
			</LineStyle>
			<PolyStyle>
				<color>ffeeff00</color>
				<fill>0</fill>
			</PolyStyle>
		</Style>
		<Style id="PolyStyle007">
			<LabelStyle>
				<color>00000000</color>
				<scale>0</scale>
			</LabelStyle>
			<LineStyle>
				<color>ffc5ff00</color>
				<width>2</width>
			</LineStyle>
			<PolyStyle>
				<color>ffeeff00</color>
				<fill>0</fill>
			</PolyStyle>
		</Style>
		<Folder id="FeatureLayer0">
			<name>tnj_56km_new</name>
			<Snippet maxLines="0"></Snippet>
			<Placemark id="ID_00000">
				<name>Thanjavur airfield</name>
				<Snippet maxLines="0"></Snippet>
				<description><![CDATA[<html xmlns:fo="http://www.w3.org/1999/XSL/Format" xmlns:msxsl="urn:schemas-microsoft-com:xslt">

<head>

<META http-equiv="Content-Type" content="text/html">

<meta http-equiv="content-type" content="text/html; charset=UTF-8">

</head>

<body style="margin:0px 0px 0px 0px;overflow:auto;background:#FFFFFF;">

<table style="font-family:Arial,Verdana,Times;font-size:12px;text-align:left;width:100%;border-collapse:collapse;padding:3px 3px 3px 3px">

<tr style="text-align:center;font-weight:bold;background:#9CBCE2">

<td>Thanjavur airfield</td>

</tr>

<tr>

<td>

<table style="font-family:Arial,Verdana,Times;font-size:12px;text-align:left;width:100%;border-spacing:0px; padding:3px 3px 3px 3px">

<tr>

<td>FID</td>

<td>0</td>

</tr>

<tr bgcolor="#D4E4F3">

<td>NAME</td>

<td>Thanjavur airfield</td>

</tr>

<tr>

<td>LAYER</td>

<td>Unknown Point Feature</td>

</tr>

<tr bgcolor="#D4E4F3">

<td>BUFF_DIST</td>

<td>56</td>

</tr>

<tr>

<td>ORIG_FID</td>

<td>0</td>

</tr>

</table>

</td>

</tr>

</table>

</body>

</html>]]></description>
				<styleUrl>#PolyStyle005</styleUrl>
				<MultiGeometry>
					<Polygon>
						<outerBoundaryIs>
							<LinearRing>
								<coordinates>
									79.10277777777777,11.22598485731587,0 79.08912684632622,11.22580514320047,0 79.07548564020158,11.22526612888637,0 79.06186387769026,11.22436819837368,0 79.04827126300296,11.22311199135419,0 79.03471747925059,11.22149840274781,0 79.02121218143635,11.21952858205459,0 79.00776498946955,11.21720393252243,0 78.99438548120658,11.21452611013121,0 78.98108318552447,11.21149702239406,0 78.96786757543215,11.20811882697665,0 78.9547480612249,11.20439393013577,0 78.94173398368719,11.20032498497817,0 78.92883460734906,11.19591488954113,0 78.91605911380135,11.19116678469629,0 78.90341659507466,11.18608405187825,0 78.89091604708726,11.18067031063971,0 78.87856636316678,11.17492941603519,0 78.86637632765076,11.16886545583508,0 78.85435460957062,11.16248274757242,0 78.84250975642408,11.15578583542449,0 78.8308501880404,11.14877948693175,0 78.81938419054326,11.14146868955652,0 78.80811991041557,11.13385864708415,0 78.79706534867074,11.12595477586928,0 78.78622835513451,11.11776270093025,0 78.77561662284175,11.10928825189445,0 78.7652376825521,11.10053745879782,0 78.75509889738838,11.09151654774162,0 78.74520745760202,11.08223193640979,0 78.7355703754686,11.07269022945029,0 78.72619448031774,11.06289821372386,0 78.71708641370041,11.05286285342389,0 78.70825262469715,11.04259128507096,0 78.69969936537073,11.03209081238579,0 78.69143268636583,11.02136890104466,0 78.68345843265922,11.01043317332084,0 78.67578223946312,10.9992914026164,0 78.66840952828437,10.98795150788826,0 78.66134550314229,10.97642154797264,0 78.65459514694732,10.96470971581219,0 78.64816321804329,10.95282433258997,0 78.64205424691494,10.94077384177471,0 78.63627253306315,10.9285668030816,0 78.63082214204982,10.9162118863532,0 78.62570690271387,10.90371786536485,0 78.62093040456043,10.89109361155904,0 78.61649599532437,10.87834808771354,0 78.61240677870988,10.86549034154765,0 78.60866561230705,10.85252949927132,0 78.60527510568683,10.83947475908182,0 78.60223761867518,10.82633538461265,0 78.59955525980727,10.81312069833936,0 78.59722988496263,10.79984007494709,0 78.59526309618138,10.78650293466449,0 78.59365624066257,10.77311873656896,0 78.59241040994452,10.7596969718678,0 78.59152643926747,10.74624715716017,0 78.59100490711852,10.73277882768461,0 78.59084613495907,10.71930153055696,0 78.59105018713413,10.70582481800334,0 78.59161687096351,10.69235824059316,0 78.59254573701422,10.67891134047674,0 78.59383607955367,10.66549364463243,0 78.59548693718294,10.65211465812786,0 78.59749709364907,10.63878385740017,0 78.59986507883593,10.62551068355981,0 78.60258916993196,10.61230453572254,0 78.60566739277431,10.59917476437451,0 78.60909752336745,10.58613066477471,0 78.61287708957549,10.57318147039963,0 78.61700337298599,10.56033634643449,0 78.62147341094442,10.54760438331568,0 78.62628399875688,10.53499459032874,0 78.63143169205979,10.52251588926639,0 78.63691280935419,10.51017710815093,0 78.64272343470283,10.49798697502527,0 78.64885942058814,10.48595411181698,0 78.65531639092832,10.47408702827941,0 78.66208974424977,10.46239411601417,0 78.66917465701313,10.45088364257887,0 78.67656608709051,10.43956374568433,0 78.68425877739135,10.42844242748509,0 78.69224725963424,10.41752754896713,0 78.70052585826186,10.40682682443662,0 78.7090886944962,10.39634781611346,0 78.71792969053128,10.38609792883322,0 78.72704257386007,10.37608440486111,0 78.73642088173294,10.36631431882147,0 78.74605796574392,10.35679457274622,0 78.75594699654216,10.34753189124561,0 78.76608096866475,10.33853281680447,0 78.77645270548776,10.32980370520728,0 78.78705486429219,10.32135072109491,0 78.79787994144098,10.31317983365626,0 78.80892027766386,10.30529681245753,0 78.820168063446,10.29770722341197,0 78.83161534451735,10.29041642489286,0 78.84325402743818,10.28342956399225,0 78.85507588527778,10.27675157292806,0 78.86707256338185,10.27038716560183,0 78.87923558522503,10.26434083430954,0 78.89155635834445,10.25861684660763,0 78.90402618035041,10.25321924233638,0 78.91663624501017,10.24815183080255,0 78.92937764840043,10.24341818812325,0 78.942241395125,10.23902165473277,0 78.95521840459281,10.23496533305404,0 78.96829951735269,10.23125208533631,0 78.98147550148026,10.22788453166041,0 78.99473705901276,10.22486504811307,0 79.00807483242787,10.22219576513131,0 79.02147941116162,10.21987856601824,0 79.03494133816173,10.21791508563102,0 79.04845111647145,10.21630670924208,0 79.06199921584,10.21505457157422,0 79.07557607935485,10.21415955601022,0 79.08917213009168,10.21362229397761,0 79.10277777777777,10.21344316450853,0 79.11638342546385,10.21362229397761,0 79.12997947620069,10.21415955601022,0 79.14355633971553,10.21505457157422,0 79.15710443908408,10.21630670924208,0 79.1706142173938,10.21791508563102,0 79.18407614439393,10.21987856601824,0 79.19748072312767,10.22219576513131,0 79.21081849654277,10.22486504811307,0 79.22408005407527,10.22788453166041,0 79.23725603820284,10.23125208533631,0 79.25033715096272,10.23496533305404,0 79.26331416043054,10.23902165473277,0 79.2761779071551,10.24341818812325,0 79.28891931054537,10.24815183080255,0 79.30152937520512,10.25321924233638,0 79.31399919721109,10.25861684660763,0 79.3263199703305,10.26434083430954,0 79.33848299217368,10.27038716560183,0 79.35047967027775,10.27675157292806,0 79.36230152811736,10.28342956399225,0 79.37394021103819,10.29041642489286,0 79.38538749210953,10.29770722341197,0 79.39663527789168,10.30529681245753,0 79.40767561411455,10.31317983365626,0 79.41850069126335,10.32135072109491,0 79.42910285006778,10.32980370520728,0 79.43947458689078,10.33853281680447,0 79.44960855901337,10.34753189124561,0 79.45949758981162,10.35679457274622,0 79.46913467382259,10.36631431882147,0 79.47851298169546,10.37608440486111,0 79.48762586502426,10.38609792883322,0 79.49646686105933,10.39634781611346,0 79.50502969729368,10.40682682443662,0 79.51330829592129,10.41752754896713,0 79.52129677816419,10.42844242748509,0 79.52898946846503,10.43956374568433,0 79.5363808985424,10.45088364257887,0 79.54346581130577,10.46239411601418,0 79.55023916462721,10.47408702827941,0 79.5566961349674,10.48595411181698,0 79.5628321208527,10.49798697502527,0 79.56864274620136,10.51017710815093,0 79.57412386349574,10.52251588926639,0 79.57927155679866,10.53499459032874,0 79.58408214461113,10.54760438331568,0 79.58855218256954,10.56033634643449,0 79.59267846598006,10.57318147039963,0 79.59645803218808,10.58613066477471,0 79.59988816278123,10.59917476437451,0 79.60296638562357,10.61230453572254,0 79.6056904767196,10.62551068355981,0 79.60805846190647,10.63878385740017,0 79.61006861837259,10.65211465812786,0 79.61171947600187,10.66549364463243,0 79.61300981854131,10.67891134047674,0 79.61393868459203,10.69235824059316,0 79.6145053684214,10.70582481800334,0 79.61470942059647,10.71930153055696,0 79.61455064843702,10.73277882768461,0 79.61402911628808,10.74624715716017,0 79.61314514561101,10.7596969718678,0 79.61189931489297,10.77311873656896,0 79.61029245937416,10.78650293466449,0 79.6083256705929,10.79984007494709,0 79.60600029574826,10.81312069833936,0 79.60331793688036,10.82633538461265,0 79.60028044986871,10.83947475908182,0 79.59688994324848,10.85252949927132,0 79.59314877684567,10.86549034154765,0 79.58905956023116,10.87834808771354,0 79.58462515099511,10.89109361155904,0 79.57984865284166,10.90371786536485,0 79.57473341350573,10.9162118863532,0 79.56928302249239,10.9285668030816,0 79.5635013086406,10.9407738417747,0 79.55739233751224,10.95282433258997,0 79.55096040860822,10.96470971581219,0 79.54421005241326,10.97642154797264,0 79.53714602727116,10.98795150788826,0 79.52977331609242,10.9992914026164,0 79.52209712289631,11.01043317332084,0 79.51412286918971,11.02136890104466,0 79.5058561901848,11.0320908123858,0 79.49730293085838,11.04259128507096,0 79.48846914185512,11.0528628534239,0 79.47936107523779,11.06289821372386,0 79.46998518008694,11.0726902294503,0 79.46034809795353,11.08223193640979,0 79.45045665816716,11.09151654774162,0 79.44031787300345,11.10053745879782,0 79.42993893271378,11.10928825189445,0 79.41932720042104,11.11776270093025,0 79.40849020688479,11.12595477586928,0 79.39743564513996,11.13385864708415,0 79.38617136501227,11.14146868955652,0 79.37470536751513,11.14877948693175,0 79.36304579913146,11.15578583542449,0 79.35120094598491,11.16248274757242,0 79.33917922790478,11.16886545583508,0 79.32698919238875,11.17492941603519,0 79.31463950846828,11.18067031063971,0 79.30213896048087,11.18608405187825,0 79.28949644175418,11.19116678469629,0 79.27672094820647,11.19591488954113,0 79.26382157186835,11.20032498497817,0 79.25080749433063,11.20439393013577,0 79.23768798012338,11.20811882697665,0 79.22447237003107,11.21149702239406,0 79.21117007434896,11.21452611013121,0 79.19779056608598,11.21720393252243,0 79.18434337411918,11.21952858205459,0 79.17083807630495,11.22149840274781,0 79.15728429255257,11.22311199135419,0 79.14369167786529,11.22436819837368,0 79.13006991535394,11.22526612888637,0 79.11642870922931,11.22580514320047,0 79.10277777777777,11.22598485731587,0 
								</coordinates>
							</LinearRing>
						</outerBoundaryIs>
					</Polygon>
				</MultiGeometry>
			</Placemark>
		</Folder>
	</Document>
	<Document id="Identified Wind Potential Blocks" xsi:schemaLocation="http://www.opengis.net/kml/2.2 http://schemas.opengis.net/kml/2.2.0/ogckml22.xsd http://www.google.com/kml/ext/2.2 http://code.google.com/apis/kml/schema/kml22gx.xsd">
		<name>Identified Wind Potential Blocks</name>
		<Snippet maxLines="0"></Snippet>
		<StyleMap id="PolyStyle0050">
			<Pair>
				<key>normal</key>
				<styleUrl>#PolyStyle00501</styleUrl>
			</Pair>
			<Pair>
				<key>highlight</key>
				<styleUrl>#PolyStyle00505</styleUrl>
			</Pair>
		</StyleMap>
		<Style id="PolyStyle00500">
			<LabelStyle>
				<color>00000000</color>
				<scale>0</scale>
			</LabelStyle>
			<LineStyle>
				<color>ffe65c00</color>
				<width>2</width>
			</LineStyle>
			<PolyStyle>
				<color>00f0f0f0</color>
			</PolyStyle>
		</Style>
		<Style id="PolyStyle00501">
			<LabelStyle>
				<color>00000000</color>
				<scale>0</scale>
			</LabelStyle>
			<LineStyle>
				<color>ffd3e600</color>
				<width>2</width>
			</LineStyle>
			<PolyStyle>
				<color>00f0f0f0</color>
			</PolyStyle>
		</Style>
		<Style id="PolyStyle00502">
			<LabelStyle>
				<color>00000000</color>
				<scale>0</scale>
			</LabelStyle>
			<LineStyle>
				<color>ffb4e600</color>
				<width>2</width>
			</LineStyle>
			<PolyStyle>
				<color>00f0f0f0</color>
			</PolyStyle>
		</Style>
		<Style id="PolyStyle00503">
			<LabelStyle>
				<color>00000000</color>
				<scale>0</scale>
			</LabelStyle>
			<LineStyle>
				<color>ffc4e600</color>
				<width>2</width>
			</LineStyle>
			<PolyStyle>
				<color>00c8ff00</color>
				<fill>0</fill>
			</PolyStyle>
		</Style>
		<StyleMap id="PolyStyle00504">
			<Pair>
				<key>normal</key>
				<styleUrl>#PolyStyle00509</styleUrl>
			</Pair>
			<Pair>
				<key>highlight</key>
				<styleUrl>#PolyStyle005014</styleUrl>
			</Pair>
		</StyleMap>
		<Style id="PolyStyle00505">
			<LabelStyle>
				<color>00000000</color>
				<scale>0</scale>
			</LabelStyle>
			<LineStyle>
				<color>ffd3e600</color>
				<width>2</width>
			</LineStyle>
			<PolyStyle>
				<color>00f0f0f0</color>
			</PolyStyle>
		</Style>
		<StyleMap id="PolyStyle00506">
			<Pair>
				<key>normal</key>
				<styleUrl>#PolyStyle00503</styleUrl>
			</Pair>
			<Pair>
				<key>highlight</key>
				<styleUrl>#PolyStyle005012</styleUrl>
			</Pair>
		</StyleMap>
		<Style id="PolyStyle00507">
			<LabelStyle>
				<color>00000000</color>
				<scale>0</scale>
			</LabelStyle>
			<LineStyle>
				<color>ffb4e600</color>
				<width>2</width>
			</LineStyle>
			<PolyStyle>
				<color>00f0f0f0</color>
			</PolyStyle>
		</Style>
		<StyleMap id="PolyStyle00508">
			<Pair>
				<key>normal</key>
				<styleUrl>#PolyStyle005011</styleUrl>
			</Pair>
			<Pair>
				<key>highlight</key>
				<styleUrl>#PolyStyle005013</styleUrl>
			</Pair>
		</StyleMap>
		<Style id="PolyStyle00509">
			<LabelStyle>
				<color>00000000</color>
				<scale>0</scale>
			</LabelStyle>
			<LineStyle>
				<color>ffb5e600</color>
				<width>2</width>
			</LineStyle>
			<PolyStyle>
				<color>00adf001</color>
				<fill>0</fill>
			</PolyStyle>
		</Style>
		<StyleMap id="PolyStyle005010">
			<Pair>
				<key>normal</key>
				<styleUrl>#PolyStyle00502</styleUrl>
			</Pair>
			<Pair>
				<key>highlight</key>
				<styleUrl>#PolyStyle00507</styleUrl>
			</Pair>
		</StyleMap>
		<Style id="PolyStyle005011">
			<LabelStyle>
				<color>00000000</color>
				<scale>0</scale>
			</LabelStyle>
			<LineStyle>
				<color>ffb8e600</color>
				<width>2</width>
			</LineStyle>
			<PolyStyle>
				<color>00f0f0f0</color>
			</PolyStyle>
		</Style>
		<Style id="PolyStyle005012">
			<LabelStyle>
				<color>00000000</color>
				<scale>0</scale>
			</LabelStyle>
			<LineStyle>
				<color>ffc4e600</color>
				<width>2</width>
			</LineStyle>
			<PolyStyle>
				<color>00c8ff00</color>
				<fill>0</fill>
			</PolyStyle>
		</Style>
		<Style id="PolyStyle005013">
			<LabelStyle>
				<color>00000000</color>
				<scale>0</scale>
			</LabelStyle>
			<LineStyle>
				<color>ffb8e600</color>
				<width>2</width>
			</LineStyle>
			<PolyStyle>
				<color>00f0f0f0</color>
			</PolyStyle>
		</Style>
		<Style id="PolyStyle005014">
			<LabelStyle>
				<color>00000000</color>
				<scale>0</scale>
			</LabelStyle>
			<LineStyle>
				<color>ffb5e600</color>
				<width>2</width>
			</LineStyle>
			<PolyStyle>
				<color>00adf001</color>
				<fill>0</fill>
			</PolyStyle>
		</Style>
		<Folder id="FeatureLayer0">
			<name>Identified Wind Potential Blocks</name>
			<Snippet maxLines="0"></Snippet>
			<Placemark id="ID_00000">
				<name>Krishnagiri</name>
				<Snippet maxLines="0"></Snippet>
				<description><![CDATA[<html xmlns:fo="http://www.w3.org/1999/XSL/Format" xmlns:msxsl="urn:schemas-microsoft-com:xslt">

<head>

<META http-equiv="Content-Type" content="text/html">

<meta http-equiv="content-type" content="text/html; charset=UTF-8">

</head>

<body style="margin:0px 0px 0px 0px;overflow:auto;background:#FFFFFF;">

<table style="font-family:Arial,Verdana,Times;font-size:12px;text-align:left;width:100%;border-collapse:collapse;padding:3px 3px 3px 3px">

<tr style="text-align:center;font-weight:bold;background:#9CBCE2">

<td>Krishnagiri</td>

</tr>

<tr>

<td>

<table style="font-family:Arial,Verdana,Times;font-size:12px;text-align:left;width:100%;border-spacing:0px; padding:3px 3px 3px 3px">

<tr>

<td>FID</td>

<td>0</td>

</tr>

<tr bgcolor="#D4E4F3">

<td>Id</td>

<td>0</td>

</tr>

<tr>

<td>Blocks</td>

<td>Block 1</td>

</tr>

<tr bgcolor="#D4E4F3">

<td>Block_Name</td>

<td>Krishnagiri</td>

</tr>

</table>

</td>

</tr>

</table>

</body>

</html>]]></description>
				<styleUrl>#PolyStyle00500</styleUrl>
				<MultiGeometry>
					<Polygon>
						<outerBoundaryIs>
							<LinearRing>
								<coordinates>
									78.08435278860895,12.2530925715335,0 78.08795454110196,12.81850009631819,0 77.55518910165603,12.82189391257572,0 77.55158734916296,12.2564863877912,0 78.08435278860895,12.2530925715335,0 
								</coordinates>
							</LinearRing>
						</outerBoundaryIs>
					</Polygon>
				</MultiGeometry>
			</Placemark>
			<Placemark id="ID_00001">
				<name>Coimbatore</name>
				<Snippet maxLines="0"></Snippet>
				<description><![CDATA[<html xmlns:fo="http://www.w3.org/1999/XSL/Format" xmlns:msxsl="urn:schemas-microsoft-com:xslt">

<head>

<META http-equiv="Content-Type" content="text/html">

<meta http-equiv="content-type" content="text/html; charset=UTF-8">

</head>

<body style="margin:0px 0px 0px 0px;overflow:auto;background:#FFFFFF;">

<table style="font-family:Arial,Verdana,Times;font-size:12px;text-align:left;width:100%;border-collapse:collapse;padding:3px 3px 3px 3px">

<tr style="text-align:center;font-weight:bold;background:#9CBCE2">

<td>Coimbatore</td>

</tr>

<tr>

<td>

<table style="font-family:Arial,Verdana,Times;font-size:12px;text-align:left;width:100%;border-spacing:0px; padding:3px 3px 3px 3px">

<tr>

<td>FID</td>

<td>1</td>

</tr>

<tr bgcolor="#D4E4F3">

<td>Id</td>

<td>0</td>

</tr>

<tr>

<td>Blocks</td>

<td>Block 2</td>

</tr>

<tr bgcolor="#D4E4F3">

<td>Block_Name</td>

<td>Coimbatore</td>

</tr>

</table>

</td>

</tr>

</table>

</body>

</html>]]></description>
				<styleUrl>#PolyStyle00506</styleUrl>
				<MultiGeometry>
					<Polygon>
						<outerBoundaryIs>
							<LinearRing>
								<coordinates>
									76.83159913002379,11.18143092430694,0 76.83159913002379,10.42000340244124,0 78.09271346311363,10.42000340244124,0 78.09271346311363,11.18143092430694,0 76.83159913002379,11.18143092430694,0 
								</coordinates>
							</LinearRing>
						</outerBoundaryIs>
					</Polygon>
				</MultiGeometry>
			</Placemark>
			<Placemark id="ID_00002">
				<name>Thanjavur</name>
				<Snippet maxLines="0"></Snippet>
				<description><![CDATA[<html xmlns:fo="http://www.w3.org/1999/XSL/Format" xmlns:msxsl="urn:schemas-microsoft-com:xslt">

<head>

<META http-equiv="Content-Type" content="text/html">

<meta http-equiv="content-type" content="text/html; charset=UTF-8">

</head>

<body style="margin:0px 0px 0px 0px;overflow:auto;background:#FFFFFF;">

<table style="font-family:Arial,Verdana,Times;font-size:12px;text-align:left;width:100%;border-collapse:collapse;padding:3px 3px 3px 3px">

<tr style="text-align:center;font-weight:bold;background:#9CBCE2">

<td>Thanjavur</td>

</tr>

<tr>

<td>

<table style="font-family:Arial,Verdana,Times;font-size:12px;text-align:left;width:100%;border-spacing:0px; padding:3px 3px 3px 3px">

<tr>

<td>FID</td>

<td>2</td>

</tr>

<tr bgcolor="#D4E4F3">

<td>Id</td>

<td>0</td>

</tr>

<tr>

<td>Blocks</td>

<td>Block 3</td>

</tr>

<tr bgcolor="#D4E4F3">

<td>Block_Name</td>

<td>Thanjavur</td>

</tr>

</table>

</td>

</tr>

</table>

</body>

</html>]]></description>
				<styleUrl>#PolyStyle00500</styleUrl>
				<MultiGeometry>
					<Polygon>
						<outerBoundaryIs>
							<LinearRing>
								<coordinates>
									78.32114171967334,11.24805583247019,0 78.32114171967334,10.63415489296597,0 79.01594433337578,10.63415489296597,0 79.01594433337578,11.24805583247019,0 78.32114171967334,11.24805583247019,0 
								</coordinates>
							</LinearRing>
						</outerBoundaryIs>
					</Polygon>
				</MultiGeometry>
			</Placemark>
			<Placemark id="ID_00003">
				<name>Nagapattinam</name>
				<Snippet maxLines="0"></Snippet>
				<description><![CDATA[<html xmlns:fo="http://www.w3.org/1999/XSL/Format" xmlns:msxsl="urn:schemas-microsoft-com:xslt">

<head>

<META http-equiv="Content-Type" content="text/html">

<meta http-equiv="content-type" content="text/html; charset=UTF-8">

</head>

<body style="margin:0px 0px 0px 0px;overflow:auto;background:#FFFFFF;">

<table style="font-family:Arial,Verdana,Times;font-size:12px;text-align:left;width:100%;border-collapse:collapse;padding:3px 3px 3px 3px">

<tr style="text-align:center;font-weight:bold;background:#9CBCE2">

<td>Nagapattinam</td>

</tr>

<tr>

<td>

<table style="font-family:Arial,Verdana,Times;font-size:12px;text-align:left;width:100%;border-spacing:0px; padding:3px 3px 3px 3px">

<tr>

<td>FID</td>

<td>3</td>

</tr>

<tr bgcolor="#D4E4F3">

<td>Id</td>

<td>0</td>

</tr>

<tr>

<td>Blocks</td>

<td>Block 4</td>

</tr>

<tr bgcolor="#D4E4F3">

<td>Block_Name</td>

<td>Nagapattinam</td>

</tr>

</table>

</td>

</tr>

</table>

</body>

</html>]]></description>
				<styleUrl>#PolyStyle005010</styleUrl>
				<MultiGeometry>
					<Polygon>
						<outerBoundaryIs>
							<LinearRing>
								<coordinates>
									79.6060506628217,10.92920805768893,0 79.6060506628217,10.26295897605644,0 79.88206813949802,10.26295897605644,0 79.88206813949802,10.92920805768893,0 79.6060506628217,10.92920805768893,0 
								</coordinates>
							</LinearRing>
						</outerBoundaryIs>
					</Polygon>
				</MultiGeometry>
			</Placemark>
			<Placemark id="ID_00004">
				<name>Theni</name>
				<Snippet maxLines="0"></Snippet>
				<description><![CDATA[<html xmlns:fo="http://www.w3.org/1999/XSL/Format" xmlns:msxsl="urn:schemas-microsoft-com:xslt">

<head>

<META http-equiv="Content-Type" content="text/html">

<meta http-equiv="content-type" content="text/html; charset=UTF-8">

</head>

<body style="margin:0px 0px 0px 0px;overflow:auto;background:#FFFFFF;">

<table style="font-family:Arial,Verdana,Times;font-size:12px;text-align:left;width:100%;border-collapse:collapse;padding:3px 3px 3px 3px">

<tr style="text-align:center;font-weight:bold;background:#9CBCE2">

<td>Theni</td>

</tr>

<tr>

<td>

<table style="font-family:Arial,Verdana,Times;font-size:12px;text-align:left;width:100%;border-spacing:0px; padding:3px 3px 3px 3px">

<tr>

<td>FID</td>

<td>4</td>

</tr>

<tr bgcolor="#D4E4F3">

<td>Id</td>

<td>0</td>

</tr>

<tr>

<td>Blocks</td>

<td>Block 5</td>

</tr>

<tr bgcolor="#D4E4F3">

<td>Block_Name</td>

<td>Theni</td>

</tr>

</table>

</td>

</tr>

</table>

</body>

</html>]]></description>
				<styleUrl>#PolyStyle00500</styleUrl>
				<MultiGeometry>
					<Polygon>
						<outerBoundaryIs>
							<LinearRing>
								<coordinates>
									77.24205615352952,10.25463086253603,0 77.23059024952511,9.755864038347909,0 77.64461646453958,9.746346194324587,0 77.65608236854376,10.24511301851271,0 77.24205615352952,10.25463086253603,0 
								</coordinates>
							</LinearRing>
						</outerBoundaryIs>
					</Polygon>
				</MultiGeometry>
			</Placemark>
			<Placemark id="ID_00005">
				<name>Tirunelveli</name>
				<Snippet maxLines="0"></Snippet>
				<description><![CDATA[<html xmlns:fo="http://www.w3.org/1999/XSL/Format" xmlns:msxsl="urn:schemas-microsoft-com:xslt">

<head>

<META http-equiv="Content-Type" content="text/html">

<meta http-equiv="content-type" content="text/html; charset=UTF-8">

</head>

<body style="margin:0px 0px 0px 0px;overflow:auto;background:#FFFFFF;">

<table style="font-family:Arial,Verdana,Times;font-size:12px;text-align:left;width:100%;border-collapse:collapse;padding:3px 3px 3px 3px">

<tr style="text-align:center;font-weight:bold;background:#9CBCE2">

<td>Tirunelveli</td>

</tr>

<tr>

<td>

<table style="font-family:Arial,Verdana,Times;font-size:12px;text-align:left;width:100%;border-spacing:0px; padding:3px 3px 3px 3px">

<tr>

<td>FID</td>

<td>5</td>

</tr>

<tr bgcolor="#D4E4F3">

<td>Id</td>

<td>0</td>

</tr>

<tr>

<td>Blocks</td>

<td>Block 7</td>

</tr>

<tr bgcolor="#D4E4F3">

<td>Block_Name</td>

<td>Tirunelveli</td>

</tr>

</table>

</td>

</tr>

</table>

</body>

</html>]]></description>
				<styleUrl>#PolyStyle00508</styleUrl>
				<MultiGeometry>
					<Polygon>
						<outerBoundaryIs>
							<LinearRing>
								<coordinates>
									77.24205615352952,9.183873409912394,0 77.23732497274153,8.698927379151314,0 78.21290398513196,8.689409535127993,0 78.21763516591972,9.174355565889073,0 77.24205615352952,9.183873409912394,0 
								</coordinates>
							</LinearRing>
						</outerBoundaryIs>
					</Polygon>
				</MultiGeometry>
			</Placemark>
			<Placemark id="ID_00006">
				<name>Kanyakumari</name>
				<Snippet maxLines="0"></Snippet>
				<description><![CDATA[<html xmlns:fo="http://www.w3.org/1999/XSL/Format" xmlns:msxsl="urn:schemas-microsoft-com:xslt">

<head>

<META http-equiv="Content-Type" content="text/html">

<meta http-equiv="content-type" content="text/html; charset=UTF-8">

</head>

<body style="margin:0px 0px 0px 0px;overflow:auto;background:#FFFFFF;">

<table style="font-family:Arial,Verdana,Times;font-size:12px;text-align:left;width:100%;border-collapse:collapse;padding:3px 3px 3px 3px">

<tr style="text-align:center;font-weight:bold;background:#9CBCE2">

<td>Kanyakumari</td>

</tr>

<tr>

<td>

<table style="font-family:Arial,Verdana,Times;font-size:12px;text-align:left;width:100%;border-spacing:0px; padding:3px 3px 3px 3px">

<tr>

<td>FID</td>

<td>6</td>

</tr>

<tr bgcolor="#D4E4F3">

<td>Id</td>

<td>0</td>

</tr>

<tr>

<td>Blocks</td>

<td>Block 8</td>

</tr>

<tr bgcolor="#D4E4F3">

<td>Block_Name</td>

<td>Kanyakumari</td>

</tr>

</table>

</td>

</tr>

</table>

</body>

</html>]]></description>
				<styleUrl>#PolyStyle00500</styleUrl>
				<MultiGeometry>
					<Polygon>
						<outerBoundaryIs>
							<LinearRing>
								<coordinates>
									77.24681507554118,8.555695704373193,0 77.25490462350172,8.042009408877391,0 77.85928771898261,8.051527252900712,0 77.85119817102185,8.565213548396514,0 77.24681507554118,8.555695704373193,0 
								</coordinates>
							</LinearRing>
						</outerBoundaryIs>
					</Polygon>
				</MultiGeometry>
			</Placemark>
			<Placemark id="ID_00007">
				<name>Ramnad</name>
				<Snippet maxLines="0"></Snippet>
				<description><![CDATA[<html xmlns:fo="http://www.w3.org/1999/XSL/Format" xmlns:msxsl="urn:schemas-microsoft-com:xslt">

<head>

<META http-equiv="Content-Type" content="text/html">

<meta http-equiv="content-type" content="text/html; charset=UTF-8">

</head>

<body style="margin:0px 0px 0px 0px;overflow:auto;background:#FFFFFF;">

<table style="font-family:Arial,Verdana,Times;font-size:12px;text-align:left;width:100%;border-collapse:collapse;padding:3px 3px 3px 3px">

<tr style="text-align:center;font-weight:bold;background:#9CBCE2">

<td>Ramnad</td>

</tr>

<tr>

<td>

<table style="font-family:Arial,Verdana,Times;font-size:12px;text-align:left;width:100%;border-spacing:0px; padding:3px 3px 3px 3px">

<tr>

<td>FID</td>

<td>7</td>

</tr>

<tr bgcolor="#D4E4F3">

<td>Id</td>

<td>0</td>

</tr>

<tr>

<td>Blocks</td>

<td>Block 6</td>

</tr>

<tr bgcolor="#D4E4F3">

<td>Block_Name</td>

<td>Ramnad</td>

</tr>

</table>

</td>

</tr>

</table>

</body>

</html>]]></description>
				<styleUrl>#PolyStyle00504</styleUrl>
				<MultiGeometry>
					<Polygon>
						<outerBoundaryIs>
							<LinearRing>
								<coordinates>
									78.29377791810629,9.374230290378819,0 78.29377791810629,8.99827545145763,0 78.56027755075928,9.007793295480951,0 78.55551862874762,9.112489579737485,0 79.54537440717303,9.126766345772467,0 79.54537440717303,9.374230290378819,0 78.29377791810629,9.374230290378819,0 
								</coordinates>
							</LinearRing>
						</outerBoundaryIs>
					</Polygon>
				</MultiGeometry>
			</Placemark>
			<Placemark id="ID_00008">
				<name>Tuticorin</name>
				<Snippet maxLines="0"></Snippet>
				<description><![CDATA[<html xmlns:fo="http://www.w3.org/1999/XSL/Format" xmlns:msxsl="urn:schemas-microsoft-com:xslt">

<head>

<META http-equiv="Content-Type" content="text/html">

<meta http-equiv="content-type" content="text/html; charset=UTF-8">

</head>

<body style="margin:0px 0px 0px 0px;overflow:auto;background:#FFFFFF;">

<table style="font-family:Arial,Verdana,Times;font-size:12px;text-align:left;width:100%;border-collapse:collapse;padding:3px 3px 3px 3px">

<tr style="text-align:center;font-weight:bold;background:#9CBCE2">

<td>Tuticorin</td>

</tr>

<tr>

<td>

<table style="font-family:Arial,Verdana,Times;font-size:12px;text-align:left;width:100%;border-spacing:0px; padding:3px 3px 3px 3px">

<tr>

<td>FID</td>

<td>8</td>

</tr>

<tr bgcolor="#D4E4F3">

<td>Id</td>

<td>0</td>

</tr>

<tr>

<td>Blocks</td>

<td>Block 9</td>

</tr>

<tr bgcolor="#D4E4F3">

<td>Block_Name</td>

<td>Tuticorin</td>

</tr>

</table>

</td>

</tr>

</table>

</body>

</html>]]></description>
				<styleUrl>#PolyStyle0050</styleUrl>
				<MultiGeometry>
					<Polygon>
						<outerBoundaryIs>
							<LinearRing>
								<coordinates>
									77.85786066183834,8.659678150327977,0 77.87321614903925,8.250198491637093,0 78.15875146973889,8.260906066163329,0 78.14339598253798,8.670385724854214,0 77.85786066183834,8.659678150327977,0 
								</coordinates>
							</LinearRing>
						</outerBoundaryIs>
					</Polygon>
				</MultiGeometry>
			</Placemark>
		</Folder>
	</Document>
</Folder>
</kml>
